long,lat,id,nombre,tipo,tipo_norma,sede,direccion,direccion_2,observaciones_direccion,telefono,e_mail,facebook,web,actividade,instalacio,calle,altura,barrio,comuna,codigo_postal,codigo_postal_argentino
-58.3735998027628,-34.6038076278375,270,CIRCULO POLICIA FEDERAL,CLUB,CLUB,SEDE SOCIAL,San Martín 353,San Martín 353,,4394-2409,info@cpf.org.ar - cpf@iplnmail.com.ar,Club Círculo Policía Federal,www.cpf.org.ar,"futsal, patin, voley, hockey, natacion, artes marciales",4 natatorios (1 cubierto) - 2  canchas - 4 salones,San Martín ,353,San Nicolas,Comuna 1,1004,C1004AAG
-58.4182751233009,-34.6148667297669,206,CENTRO NAVARRO DE BUENOS AIRES,CLUB DE BARRIO,CLUB_DE_BARRIO,,Moreno 3682,Moreno 3682,,4932-7518,centronavarro@fibertel.com.ar,Centro Navarro de Buenos Aires Organización,www.centronavarro.org,"Pelota paleta, danzas navarras, taekwondo. Actividades culturales.",1 cancha - 1 salon - Biblioteca,Moreno ,3682,Almagro,Comuna 5,1209,C1209ABR
-58.4028147822339,-34.6131590729385,135,CIRCULO SOCIAL Y DEPORTIVO DEL ONCE,CLUB DE BARRIO,CLUB_DE_BARRIO,UNICA,Moreno 2583/87,Moreno 2583,,4942-4443,,CIRCULO DEL ONCE,,"Billar, taekwondo, pesca deportiva, yoga, relajacion, kung fu, backgammon, ajedrez.",3 salones,Moreno ,2583,Balvanera,Comuna 3,1094,C1094ABO
-58.3984538107896,-34.6058540132103,98,SOCIEDAD HEBRAICA ARGENTINA,CLUB,CLUB,CENTRAL CABA Y SEDE PILAR,Sarmiento 2233,Sarmiento 2233,,4952-5887    4953-4117/2914    4952-5880,hebraica@hebraica.org.ar,SOCIEDAD HEBRAICA ARGENTINA - PAGINA OFICIAL,www.hebraica.org.ar,"Futsal, basket, voley, judo, karate, ajedrez, fútbol 11, hockey, rugby, tenis de mesa, gimnasia, natacion, pesas, tenis, golf,voley femenino,fútbol femenino.",canchas - salones - natatorio - gimnasios,Sarmiento ,2233,Balvanera,Comuna 3,1044,C1044AAI
-58.3729774351141,-34.6226019571884,9,SAN TELMO,CLUB,CLUB,ANEXO POLIDEPORTIVO CENTENARIO,Bolivar 1257,Bolivar 1257,,4-300-8965 / 4-300-8902,soydetelmo@hotmail.com,Club Atletico San Telmo,www.soydetelmo.com.ar,"Fútbol profesional, Handball federado damas y caballeros, Hockey federado damas y caballeros, Boxeo federado, Patín artístico, Escuela de fútbol, Fútbol femenino, Gimnasia para adultos. Clases de tango. Actividades culturales.",,Bolivar ,1257,San Telmo,Comuna 1,1141,C1141AAA
-58.5074390225635,-34.623428147558,237,CLUB VECINAL Y DEPORTIVO DEFENSORES DE CERVANTES,CLUB DE BARRIO,CLUB_DE_BARRIO,,Cervantes  1734,Cervantes  1734,,4648-4277,,,,"baby fútbol, futsal, patin, artes marciales,yoga. Actividades. Culturales.",1 cancha - 2 salones,Cervantes  ,1734,Monte Castro,Comuna 10,1407,C1407BHF
-58.4728590513665,-34.6627064291378,221,Club Deportivo Español,CLUB,CLUB,ANEXOS,Dellepiane y Escalada,Dellepiane,y Escalada,S/T,clubespañol@speedy.com.ar,,,"baby, futsal, patin, voley, artes marciales, danza, otros. Actividades culturales.",,Dellepiane,,,,,
-58.4539941931464,-34.6828914029594,216,GOLF CLUB JOSE JURADO,CLUB,CLUB,,Av. Roca 5025,Av. Roca 5025,,4605-4706,,,,golf,campo de golf,Av. Roca ,5025,,,,
-58.4165725269514,-34.6504769184127,199,CLUB UNIDOS DE POMPEYA,CLUB DE BARRIO,CLUB_DE_BARRIO,,Saenz 871,Saenz 871,,,,,,,salon - natatorio,Saenz ,871,,,,
-58.3802363048757,-34.6116322967714,191,CLUB DE PELOTA Y ESGRIMA,CLUB DE BARRIO,CLUB_DE_BARRIO,,Moreno  981,Moreno  981,,4342-4820,,,,pelota-paleta,cancha de paleta - salon,Moreno  ,981,Monserrat,Comuna 1,1091,C1091AAS
-58.3970888129705,-34.6070141409099,85,VASCO ARGENTINO GURE ECHEA,CLUB DE BARRIO,CLUB_DE_BARRIO,UNICA,Peron 2143,Peron 2143,,4953-8328  4951-5363,,,,"Coro, pelota paleta, natacion, padel.",cancha - salon - natatorio,Peron ,2143,,,,
-58.4130443661237,-34.5687555740353,280,TENIS CLUB ARGENTINO,CLUB,CLUB,SEDE PALERMO - TIENEN OTRA SEDE EN OLIVOS,"Valentin Alsina 4375, y Belisario Roldán, detrás del planetario",Av. Valentin Alsina 4375,y Belisario Roldán,4772-1744/4507/9769,secretaria@tenisclubargentino.com,,www.tenisclubargentino.com/,tenis,3 salones - cancha de fútbol - 21 canchas de tenis,Av. Valentin Alsina ,4375,,,,
-58.4155660407943,-34.5691714743677,276,ASOCIACION CIVIL CLUB HIPICO BUENOS AIRES,CLUB DE BARRIO,CLUB_DE_BARRIO,UNICA,"Figueroa Alcorta 4800 esquina Belisario Roldán, enfrente del viejo Velódromo (hoy el Club CUBA)",Figueroa Alcorta 4800,esq. Belisario Roldán,4777-1222,clubhipicobsas@hotmail.com,,,hipismo - escuela de equitacion desde 6 años hasta adolescentes - equinoterapia,1 salon - 2 pistas de hipismo,Figueroa Alcorta ,4800,Palermo,Comuna 14,1425,C1425CMN
-58.462968104885,-34.5361398883746,271,CIRCULO POLICIA FEDERAL,CLUB,CLUB,SEDE CRIO. GRAL. R. O. SCHULLER,Santiago de Calzadilla 1350,Santiago Calzadilla 1350,,,info@cpf.org.ar,Club Círculo Policía Federal,www.cpf.org.ar,"futsal, patin, voley, hockey, natacion, artes marciales",4 natatorios (1 cubierto) - 2  canchas - 4 salones,Santiago Calzadilla ,1350,Nu\u00f1ez,Comuna 13,1429,C1429ECB
-58.5019055887167,-34.6679598699601,227,CLUB SOCIAL Y DEPORTIVO LIBERAL DE NUEVA CHICAGO,CLUB DE BARRIO,CLUB_DE_BARRIO,,Carhue 2855/77,Carhue 2855,,4686-6151,,,,"Baby, patin, artes marciales, gimnasia, gimnasia deportiva, pelota paleta, yoga. Actividades culturales.",2 canchas (1 de pelota-paleta) - 1 salon,Carhue ,2855,Mataderos,Comuna 9,1440,C1440ERC
-58.3840954318048,-34.6192314667557,190,CLUB DE AJEDREZ JAQUE MATE ASOCIACION CIVIL,CLUB DE BARRIO,CLUB_DE_BARRIO,,Sgo. Del Estero 952,Santiago Del Estero 952,,4305-5206,,,,ajedrez,biblioteca - 4 salones,Santiago Del Estero ,952,Constitucion,Comuna 1,1075,C1075AAT
-58.431309990681,-34.6378345933595,141,TELEGRAFO Y CRISOL UNIDOS,CLUB DE BARRIO,CLUB_DE_BARRIO,UNICA,Zarasa 951/953/957,Saraza 951,,4925-5830,,,,baby fútbol - patin - karate - taekwondo - kick boxing - tenis de mesa - gimnasia aerobica - tango - arqueria,1 cancha - 3 salones,Saraza ,951,Parque Chacabuco,Comuna 7,1424,C1424CWK
-58.4415389500173,-34.6608059817591,82,ASOCIACION DE FOMENTO JOSE SOLDATI,CLUB DE BARRIO,CLUB_DE_BARRIO,UNICA,Av. La Fuente 2931,Av. Lafuente 2931,,4918-6132,soldatijose@hotmail.com.ar,,,"Baby fútbol, patin artistico y competitivo, acrobacia con telas, Chaiu-Do-Kwan.",cancha - salon,Av. Lafuente ,2931,Villa Soldati,Comuna 8,1437,C1437BUG
-58.4767504767871,-34.5850277939546,69,SOCIAL Y DEPORTIVO VILLA MODELO,CLUB DE BARRIO,CLUB_DE_BARRIO,UNICA,Arizmendi 2686,Arismendi 2686,,,,,,gimnasia ritmica - ajedrez - acrobacia - yoga - gimnasia para adultos,salones,Arismendi ,2686,Parque Chas,Comuna 15,1427,C1427DLF
-58.5223008357314,-34.6536700912009,57,BRISAS DE LINIERS,CLUB DE BARRIO,CLUB_DE_BARRIO,UNICA,Montiel 1374/82,Montiel 1374,,4644-3552,,,,"baby, artes marciales, gimnasia, yoga",salon - cancha,Montiel ,1374,Liniers,Comuna 9,1408,C1408FWB
-58.5244274252304,-34.6225059595215,1,JORGE NEWBERY,CLUB DE BARRIO,CLUB_DE_BARRIO,UNICA,Irigoyen 2050,Irigoyen 2050,,4642-4859,jnfutsal@gmail.com,Jorge Newbery Futsal,www.jnfutsal.blogspot.com.ar,"Gimnasia artistica, fútbol, padel, patin, gimnasia ritmica, baby, futsal, clases de folklore, taekwondo. Actividades culturales.","canchas de baby, canchas de padel, salones",Irigoyen ,2050,Villa Real,Comuna 10,1408,C1408CPR
-58.4313497069514,-34.5918863430494,2,UNION GENERAL ARMENIA DE CULTURA FISICA - UGAB,CLUB DE BARRIO,CLUB_DE_BARRIO,UNICA,Armenia 1318/22,Armenia 1318,,"4773-2820 int.128 (de 15hs a 20hs)

",secretaria@ugab.org.ar - ugab.deporte@gmail.com,Facebook | Ugab-Deportes,www.ugab.org.ar,"Básquet , futsal, voley, patín, tenis de mesa, karate, natación, gimnasia artística, taekwondo, iniciación deportiva.",natatorios climatizados,Armenia ,1318,Palermo,Comuna 14,1414,C1414DKD
-58.3827702384402,-34.6072091707884,3,CLUB GIMNASIA Y ESGRIMA DE BUENOS AIRES,CLUB,CLUB,CENTRAL - DR. R. C. ALDAO,"Bartolome Mitre 1149 - Tte. Gral. J. D. Peron 1154

",Bartolome Mitre 1149,,4382-4395/ 0031,info@geba.org.ar,GEBA - Club de Gimnasia y Esgrima de Buenos Aires (Oficial),www.portaldegeba.com,Acond. Físico -Aeróbica y Localizada -Aikido-Ajedrez -Basquet -Body Combat -Body Pump -Boxeo -Bridge -Danesa -Danza Jazz -Esgrima y de Bastón -Flexibilidad -Futbol -Gim. Artística Fem. y Masc. - Natación (más info en Tabla Anexo),"Gim. de 50 x 24 m:Voley y Basquet - 2 Gim. de Voley, Basquet y Fútbol 5 - 4 Gim. Activ. Gimnásticas y Recreativas - 3 Trinquetes de Pelota a Paleta - Gim. y Ring Box - 1 Gim. para Gim. dep. y artíst. -Natatorio 25m cubierto (más info en Tabla Anexo)",Bartolome Mitre ,1149,San Nicolas,Comuna 1,1036,C1036AAU
-58.4257391260183,-34.5603138223326,4,CLUB GIMNASIA Y ESGRIMA DE BUENOS AIRES,CLUB,CLUB,SEDE SAN MARTIN,"Av. Figueroa Alcorta 5575
","Av. Pres. Figueroa Alcorta 5575
",,"Conmutador: 4788-8400/3303/5073
",info@geba.org.ar,GEBA - Club de Gimnasia y Esgrima de Buenos Aires (Oficial),www.portaldegeba.com,Aerobica y Localizada - Aerobico y Latino - Ajedrez - Basquetbol - Deport Training - Flexibilidad - Futbol - Gimnasia Artistica Femenina y Acrobatica - Musculacion - Golf - Hockey Sobre Cesped Femenino -Waterpolo (más info en Tabla Anexo),24 canchas tenis ladrillo - 2 Canchas tenis cemento - 7 Canchas Voley - 3 Canchas Futbol 11 - 3 Canchas de Futbol sintetico - 3 Piletas de 700 m2 (una climatizada)- Cancha basquet de cemento - 2 Canchas Hockey Cesped sintético (más info en Tabla Anexo),Av. Pres. Figueroa Alcorta ,5575,Palermo,Comuna 14,1426,C1426CBF
-58.4204750187746,-34.5687506154077,5,CLUB GIMNASIA Y ESGRIMA DE BUENOS AIRES,CLUB,CLUB,SEDE ING. J. NEWBERY,"Marcelino Freyre 3831 - Av. Dorrego 3600
",Marcelino Freyre 3831,,"4777-8400
",info@geba.org.ar,GEBA - Club de Gimnasia y Esgrima de Buenos Aires (Oficial),www.portaldegeba.com,Aeróbica y Localizada Ajedrez Atletismo -Gim. Musculación - Indoor Cycle - Iniciación Deportiva -Localizada y Intensa -Natación - P.A.F.B. - Pelota a Paleta  Tenis - Yoga Moderno -  Colonia de vacaciones (más info en Tabla Anexo),6 Canchas tenis ladrillo - 1 Frontón - 1 Cancha basquet cemento - 1 Playón multiuso / Cancha sintético mini fútbol - 1 Estadio con capaciad  para 12.000 espectadores - 4 Canchas Mini Voley - 1 Pista de Atletismo de 6 andariveles (más info en Tabla Anexo),Marcelino Freyre ,3831,Palermo,Comuna 14,,
-58.510322471747,-34.6129808016421,6,DEVOTO SOCIAL ALLENDE,CLUB DE BARRIO,CLUB_DE_BARRIO,UNICA,Melincue 4656,Melincue 4656,,4566-8557,,,,"baby fútbol, pelota paleta, gimnasia, gimnasia deportiva, taekwondo, pilates, spining",canchas - salon - biblioteca - natatorio,Melincue ,4656,Villa Devoto,Comuna 11,1417,C1417FIJ
-58.4685894723874,-34.6416755725458,7,PEDRO ECHAGUE,CLUB DE BARRIO,CLUB_DE_BARRIO,UNICA,Portela 840,Portela 840,,4637-0843  4612-0117,icdpedroechague@hotmail.com,I. C.D. CLUB PEDRO ECHAGUE,www.icdpedroechague.com,"basquet, futsal, baby, voley, patin, handbol, karate, taekwondo, teatro, gimnasio de musculacion, teatro, coro, iniciacion deportiva, gimnasia acrobatica
",3 canchas - 1 salon - gimnasio,Portela ,840,Flores,Comuna 7,1406,C1406FDR
-58.3738442920558,-34.6239549838877,8,SAN TELMO,CLUB,CLUB,CENTRAL,Peru 1362,Peru 1362,,4-300-8965 / 4-300-8902,soydetelmo@hotmail.com,Club Atletico San Telmo,www.soydetelmo.com.ar,"Fútbol profesional, Handball federado damas y caballeros, Hockey federado damas y caballeros, Boxeo federado, Patín artístico, Escuela de fútbol, Fútbol femenino, Gimnasia para adultos. Clases de tango. Actividades culturales.",,Peru ,1362,San Telmo,Comuna 1,1141,C1141ACD
-58.3749468674593,-34.6231549107991,10,SAN TELMO,CLUB,CLUB,ANEXO FUTBOL INFANTIL,Cochabamba 657,Cochabamba 657,,4-300-8965 / 4-300-8902,soydetelmo@hotmail.com,Club Atletico San Telmo,www.soydetelmo.com.ar,"Fútbol profesional, Handball federado damas y caballeros, Hockey federado damas y caballeros, Boxeo federado, Patín artístico, Escuela de fútbol, Fútbol femenino, Gimnasia para adultos. Clases de tango. Actividades culturales.",,Cochabamba ,657,San Telmo,Comuna 1,1150,C1150AAI
-58.3738459621111,-34.6239333540727,11,SAN TELMO,CLUB,CLUB,ANEXO GIMNASIO CENTENARIO,Peru 1360,Peru 1360,,4-300-8965 / 4-300-8902,soydetelmo@hotmail.com,Club Atletico San Telmo,www.soydetelmo.com.ar,"Fútbol profesional, Handball federado damas y caballeros, Hockey federado damas y caballeros, Boxeo federado, Patín artístico, Escuela de fútbol, Fútbol femenino, Gimnasia para adultos. Clases de tango. Actividades culturales.",,Peru ,1360,San Telmo,Comuna 1,1141,C1141ACD
-58.5048796247501,-34.5889975300273,12,CLUB SOCIAL SPORTIVO DEVOTO,CLUB DE BARRIO,CLUB_DE_BARRIO,,Gabriela Mistral 3151,Gabriela Mistral 3151,,4571-3552,,,,"boxeo, artes marciales, fútbol,
tejo",salones - canchas de tejo,Gabriela Mistral ,3151,Villa Pueyrredon,Comuna 12,1419,C1419GFU
-58.4141329130848,-34.6031227944128,13,CIRCULO DE AJEDREZ TORRE BLANCA,CLUB DE BARRIO,CLUB_DE_BARRIO,,Sanchez de Bustamante 587,Sanchez de Bustamante 587,,4862-3161,circulotorreblanca@fibertel.com.ar,,,ajedrez,,Sanchez de Bustamante ,587,Almagro,Comuna 5,1173,C1173ABI
-58.4134233056446,-34.618341684109,14,KANAIMA ASOCIACION CIVIL,CLUB DE BARRIO,CLUB_DE_BARRIO,,Agrelo 3356,Agrelo 3356,,4932-9926,kanaima_org@yahoo.com.ar,,,"baby, gimnasia, teatro, tango",cancha - salon,Agrelo ,3356,Almagro,Comuna 5,1224,C1224ABF
-58.4747664234414,-34.5895430979502,15,AGRONOMIA CENTRAL,CLUB DE BARRIO,CLUB_DE_BARRIO,UNICA,Bauness 958,Bauness 958,,4524-2225,clubagronomiacentral@gmail.com,Club Agronomia Central,www.clubagronomiacentral.wordpress.com,"voley, basquet, baby fútbol, patin, boxeo, gimnasia, futsal, fútbol femenino",canchas - salon,Bauness ,958,Parque Chas,Comuna 15,1427,C1427BCL
-58.4595858940217,-34.6034211900075,16,ATLETICO LA PATERNAL,CLUB DE BARRIO,CLUB_DE_BARRIO,UNICA,Fragata Sarmiento 1951,Fragata Sarmiento 1951,,4581-2558,calapaternal@hotmail.com,,,"Fútbol, Paleta, Taekwondo, Patín artístico, Muay Thai, Roller derby y Vóley",cancha - salones,Fragata Sarmiento ,1951,Paternal,Comuna 15,1416,C1416CBQ
-58.4686933035274,-34.6126443514573,17,VILLA GENERAL MITRE,CLUB DE BARRIO,CLUB_DE_BARRIO,UNICA,Gavilan 1540,Gavilan 1540,,4584-2822   4581-0846,,,,"Basquet, Fútbol infantil, Futsal, Taekwondo, Yin Tao, Gimnasia Artística, Patín, Tela y Gimnasio de musculación",canchas - salones,Gavilan ,1540,Villa Gral. Mitre,Comuna 11,1416,C1416ACH
-58.4907981692661,-34.5919090463545,18,BIBLIOTECA GENERAL ARTIGAS,CLUB DE BARRIO,CLUB_DE_BARRIO,UNICA,Navarro 2544,Navarro 2544,,4575-4459 / 4571-1370,artigasclub@gmail.com,BIBLIOTECA GENERAL ARTIGAS (OFICIAL),,"baby fútbol, patin, taekwondo, musculacion, voley, gimnasia, tango",cancha - salones - gimnasio - biblioteca,Navarro ,2544,Agronomia,Comuna 15,1419,C1419HSJ
-58.5025494609551,-34.6534728037928,19,JOSE HERNANDEZ,CLUB DE BARRIO,CLUB_DE_BARRIO,UNICA,Bragado 5950,Bragado 5950,,4635-2323,asocjosehernandez@hotmail.com,JOSE HERNANDEZ,,"patin, voley, gimnasia, gimnasia deportiva, artes marciales, danza, ajedrez, otros","gimnasios, canchas, salon, biblioteca, natatorio",Bragado ,5950,Mataderos,Comuna 9,1440,C1440ACV
-58.4779606002259,-34.5478618359252,20,ALL BOYS DE SAAVEDRA,CLUB DE BARRIO,CLUB_DE_BARRIO,UNICA,Besares 3142,Besares 3142,,4541-8338,allboys_saavedra@yahoo.com.ar,All Boys de Saavedra - Voley,www.allboyssaavedra.com.ar,"Boxeo, artes marciales, danzas, gimnasia aerobica, voley, basquet, futsal, baby, escalada deportiva, indoor bike, pilates. Actividades culturales.",biblioteca - gimnasio - salon - canchas,Besares ,3142,Saavedra,Comuna 12,1429,C1429DJD
-58.438872244175,-34.5911296364412,21,CICLISTA NACION,CLUB DE BARRIO,CLUB_DE_BARRIO,SEDE ADMINISTRATIVA,Godoy Cruz 1209,Godoy Cruz 1209,,4777-3232,clubciclistanacion@yahoo.com.ar,,,"Actividades de Ciclismo, competencias de ciclismo clasicas. Criterium de apertura que inicia la actividad de temporada de ruta, cuya prueba mas importante es la Doble bragado.",Sin instalaciones.,Godoy Cruz ,1209,Villa Crespo,Comuna 15,1414,C1414CYA
-58.5148338388374,-34.6433577978681,22,SANTIAGO DE LINIERS,CLUB DE BARRIO,CLUB_DE_BARRIO,UNICA,Caaguazu 6131/51,Caaguazu 6131,,4641-2839,,Grupo cerrado:  ASOCIACION DE FOMENTO SANTIAGO DE LINIERS,www.santiagodeliniers.com.ar,"Fútbol, Patín artístico, Taekwondo, Gimnasia artística y Netball. Colonia de vacaciones.",canchas - salon - natatorio,Caaguazu ,6131,Liniers,Comuna 9,1408,C1408ETI
-58.4488355684246,-34.647306399078,23,DAOM,CLUB,CLUB,UNICA,Varela 1802,Varela 1802,,4633-2583,,CLUB DAOM,www.daom.com.ar,"Tenis, Vóley, Rugby, Hockey s/cesped, Patín artístico, Béisbol, Natación femenino y masculino. Colonia de vacaciones.",gimnasios - salones - natatorios - canchas - quinchos,Varela ,1802,Flores,Comuna 7,1406,C1406ELL
-58.4861070356893,-34.6587252332728,24,ARGENTINO,CLUB DE BARRIO,CLUB_DE_BARRIO,UNICA,Albariño 2253,Albariño 2253,,4682-2045,clubargentino.mataderos@gmail.com,,,"baby, gimnasia y artes marciales",biblioteca - 2 salones,Albari,2253,Mataderos,Comuna 9,1440,C1440DFG
-58.5045949347737,-34.634702430575,25,STENTOR,CLUB DE BARRIO,CLUB_DE_BARRIO,UNICA,Sarachaga 5634,Sarachaga 5634,,4683-5712,clubstentor@yahoo.com.ar,,,"Fútbol infantil (FAFI) de 4 a 13 años, Futsal (de 14 años en adelante), Liga Metropolitana, Futsal Señor (para mayores de 35 años), Gimnasia, boxeo, Kick Boxing, Localizada,Yoga, Body Pump, Defensa personal, Kungfu, taekwondo, sanda y merengue.",cancha - salon,Sarachaga ,5634,Villa Luro,Comuna 10,1407,C1407EHD
-58.4996369837935,-34.6231593445348,26,NUESTRO BUENOS AIRES CANBA,CLUB DE BARRIO,CLUB_DE_BARRIO,UNICA,San Blas  4577,San Blas  4577,,4567-4439  4648-3577,,,,"baby fútbol, patin, voley",cancha - salon,San Blas  ,4577,Velez Sarsfield,Comuna 10,1407,C1407FTY
-58.4881972205787,-34.5543219657401,27,ESTUDIANTES DEL NORTE,CLUB DE BARRIO,CLUB_DE_BARRIO,UNICA,Holmberg 4070/78,Holmberg 4070,,4546-0344,estudiantesdn@gmail.com,Club Estudiantes Del Norte,www.estudiantesdelnorte.com.ar,"Fútbol (escuelita y competición), Taekwondo, Patín artístico, Yoga, Boxeo (actividad gratuita) y Vóley recreativo (actividad gratuita). Actividades culturales.",cancha fútbol 5 - salon,Holmberg ,4070,Saavedra,Comuna 12,1430,C1430DQD
-58.5002544118205,-34.6390142737735,28,LOS AMIGOS DE VILLA LURO,CLUB DE BARRIO,CLUB_DE_BARRIO,"DOS SEDES, UNA FRENTE A LA OTRA",Ramon L. Falcon 5176,Ramon L. Falcon 5176,,4683-4740,,AVL NATACION AVL FUTBOL,www.amigosdevillaluro.com.ar,"Fútbol infantil, Futsal, Fútbol femenino, Taekwondo (ITF y WTF), Vóley, Patín artístico, Gimnasia artística, Básquet infantil, Hándbol, Escuela de danzas, Ajedrez, Folklore. Natatorio climatizado y Gimnasio de musculación. Actividades culturales.",biblioteca - canchas - salones - natatorio,Ramon L. Falcon ,5176,Villa Luro,Comuna 10,1407,C1407GTL
-58.497739054385,-34.5695794499806,29,PENACHO AZUL,CLUB DE BARRIO,CLUB_DE_BARRIO,UNICA,Jose P. Tamborini 5658/76,Jose P. Tamborini 5658,,4543-7910  4545-5552,,PENACHO AZUL,,"Fútbol infantil, fútbol de competicion, taekwondo, patin artistico, patin de competicion, artes marciales, gimnasia artistica. Actividades culturales.",canchas,Jose P. Tamborini ,5658,Villa Urquiza,Comuna 12,1431,C1431AGV
-58.5293250697758,-34.6218719661618,30,TRIGLAV,CLUB DE BARRIO,CLUB_DE_BARRIO,UNICA,Manuel Porcel de Peralta 1458,Manuel Porcel de Peralta 1458,,4644-0605,triglavbsas@yahoo.com.ar - triglavajedrez@gmail.com,TRIGLAV INSTITUCIONAL,www.ametriglav.com.ar,"Acuagym, Colonia Vacaciones, Natación, Tango, Folklore, Bowling, Baile, Gim. Aeróbica y Artística, Yoga, Patín Artístico, Voley, Taekwondo, Basquet, Futbol, Musculación, Buceo, Hockey Subacuático, Escalada, Jiu jitsu, Boxeo (más info en Tabla Anexo)",canchas - salones - natatorio,Manuel Porcel de Peralta ,1458,Villa Real,Comuna 10,1408,C1408CBX
-58.4793045243461,-34.5878881524169,31,CIRCULO SOCIAL VERTIZ,CLUB DE BARRIO,CLUB_DE_BARRIO,UNICA,Andonaegui 1246,Andonaegui 1246,,4521-3580,,,,"futsal, gimnasia deportiva, artes marciales: Karate, kickbox, winshu. Gimnasia, ritmos latinos, voley. Danza para niñas, esferoterapia, streching, yoga. Apoyo escolar, pintura, centro de jubilados.",salon - cancha - gimnasio,Andonaegui ,1246,Parque Chas,Comuna 15,1427,C1427BEH
-58.5251762539366,-34.6435303382022,32,LINIERS CLUB,CLUB DE BARRIO,CLUB_DE_BARRIO,UNICA,Palmar 7035,Palmar 7035,,4644-7651  4641-0532,,,,"Natación, Acquagym, Pileta libre, Escuelita de fútbol, Gimnasio de complementos, Zumba, Gimnasia artística, Patín, Boxeo, Basquet, Sipalki, Taekwondo y Pilates","natatorios, salones, cancha, gimnasio",Palmar ,7035,Liniers,Comuna 9,1408,C1408EEM
-58.4910215585017,-34.5897403371899,33,DEPORTIVO MORAN,CLUB DE BARRIO,CLUB_DE_BARRIO,UNICA,Pedro Moran 2446/52,Pedro Moran 2446,,4571-4031,,CLUB MORAN,www.clubmoran.com.ar,"Baby fútbol, papi fútbol, patin, tango, ajedrez.",salon - cancha,Pedro Moran ,2446,Agronomia,Comuna 15,1419,C1419HJH
-58.4988323888633,-34.6103631840492,34,EL ALBA,CLUB DE BARRIO,CLUB_DE_BARRIO,UNICA,J. V. Gonzalez 2469/75,J. V. Gonzalez 2469,,4568-8864,clubalba@yahoo.com.ar,,,"gimnasia, artes marciales (taekwondo y kung fu), danza, patin artistico, fútbol, escuela de voley, proximamente escuela de boxeo.",,J. V. Gonzalez ,2469,Villa Del Parque,Comuna 11,1417,C1417AQG
-58.4496361570064,-34.6365973673662,35,ASOCIACION CIVIL SOCIEDAD DE FOMENTO Y CULTURA MALVINAS ARGENTINAS,CLUB DE BARRIO,CLUB_DE_BARRIO,UNICA,Eva Peron 1930,Eva Peron 1930,,4923-1887,,,,"Taekwondo, ajedrez, yoga, actividades para jubilados, bachata, salsa, folklore. Actividades culturales.",biblioteca - 3 salones,Eva Peron ,1930,Parque Chacabuco,Comuna 7,1406,C1406HMU
-58.425784999018,-34.6219667363925,36,ASOCIACION CIVIL DE VECINOS FLORENTINO AMEGHINO (AVEFA),CLUB DE BARRIO,CLUB_DE_BARRIO,UNICA,Independencia 4246,Independencia 4246,,4922-2501 a partir de las 17 hs hasta las 24 hs,,SOYDEADEFA,,"Baby, futsal, yoga. Actividades culturales.",cancha - biblioteca,Independencia ,4246,Boedo,Comuna 5,1226,C1226AAU
-58.4249518753461,-34.6586873593632,37,CHARRUA,CLUB DE BARRIO,CLUB_DE_BARRIO,UNICA,Charrua  3536,Charrua  3536,,4919-2648,,,,DEFENSA PERSONAL,salon,Charrua  ,3536,Nueva Pompeya,Comuna 4,1437,C1437AZN
-58.5050820847132,-34.6038930004133,38,KIMBERLEY,CLUB DE BARRIO,CLUB_DE_BARRIO,UNICA,Joaquin V.Gonzalez 3238,Joaquin V.Gonzalez 3238,,4502-9888,,,,"patin artistico, futsal, baby, 
",salon - cancha,Joaquin V.Gonzalez ,3238,Villa Devoto,Comuna 11,1417,C1417AQX
-58.4827415250818,-34.6419039011572,39,ALVEAR CLUB,CLUB DE BARRIO,CLUB_DE_BARRIO,UNICA,Jose E. Rodo 4190,Jose E. Rodo 4190,,4636-0183,alvearclub@outlook.com,,,"Fútbol (cancha de 11 - liga metropolitana, FAFI, CAFI), Futsal (AFA), Taekwondo, Tenis, Tenis de mesa y Gimnasio de aparatos",,Jose E. Rodo ,4190,Parque Avellaneda,Comuna 9,1407,C1407HDJ
-58.5107435796449,-34.6287087066742,40,VILLA LURO NORTE,CLUB DE BARRIO,CLUB_DE_BARRIO,UNICA,Elpidio Gonzalez 5445,Elpidio Gonzalez 5445,,4568-1061,,VILLA LURO NORTE,www.villaluronorte.com.ar,"Baby fútbol, Futsal (AFA), Fútbol femenino, Patín artístico y competencia, Aikido, Artes marciales mixtas, Baile y ritmo zumba, Folklore, Bádminton. Actividades recreativas y de diversión para jubilados.",canchas - salones,Elpidio Gonzalez ,5445,Villa Luro,Comuna 10,1407,C1407GBQ
-58.4838395463529,-34.6548725078182,41,BRISAS DEL SUD,CLUB DE BARRIO,CLUB_DE_BARRIO,UNICA,Guardia Nacional 1956,Guardia Nacional 1956,,4635-1444,,,,"Fútbol, patín,voley, natación cubierta y descubierta, gimnasia adultos e infantil, artes marciales, gim deportiva. Actividades culturales.",Cancha - Gimnasio -  Salones -  Natatorios,Guardia Nacional ,1956,Mataderos,Comuna 9,1440,C1440DUF
-58.4763984883141,-34.5863878955635,42,SABER,CLUB DE BARRIO,CLUB_DE_BARRIO,UNICA,Llerena 2725/27,Llerena 2725,,4521-8146,,,,"Baby fútbol, patin, voley, gimnasia, artes marciales, tango, gimnasia deportiva, danza, ajedrez. Actividades culturales.",cancha - salon,Llerena ,2725,Parque Chas,Comuna 15,1427,C1427DEG
-58.4437634097164,-34.5588893222616,43,EXCURSIONISTAS,CLUB,CLUB,UNICA,La Pampa 1376,La Pampa 1376,,4788-8007 sandra administrativa,,Club-Atletico-Excursionistas,www.excursionistas.org.ar,"Patin artistico, fútbol femenino, baby fútbol, boxeo,futsal federado AFA, Tenis.",Natatorios,La Pampa ,1376,Belgrano,Comuna 13,1428,C1428DZB
-58.4585962109228,-34.5963102730326,44,"TIERRA, TECHO Y TRABAJO",CLUB DE BARRIO,CLUB_DE_BARRIO,UNICA,Jorge Newbery 4870,Jorge Newbery 4870,,4855-1531,,,,"Voley, baby, gimnasia, patin, artes marciales, tango, folklore, boxeo.",biblioteca - cancha - salones,Jorge Newbery ,4870,Chacarita,Comuna 15,1427,C1427EHO
-58.5105984580064,-34.5777917190482,45,17 DE AGOSTO,CLUB DE BARRIO,CLUB_DE_BARRIO,UNICA,Albarellos 2935,Albarellos 2935,,4572-1106,c17deagosto@yahoo.com.ar -  c17deagosto@hotmail.com,,www.club17deagosto.com.ar,"Baby, futsal masculino y femenino, basquet masculino y femenino, bochas, natacion, gimnasia deportiva, musculacion, tenis, artes marciales. Actividades culturales.",canchas - salones - natatorio,Albarellos ,2935,Villa Pueyrredon,Comuna 12,1419,C1419FSG
-58.521236423563,-34.6367434712927,46,ASOCIACION CIVIL CLUB ATLETICO SOCIAL Y DEPORTIVO DEFENSORES DE OBRA SOCIAL FERROVIARIA DOSFE,CLUB DE BARRIO,CLUB_DE_BARRIO,UNICA,Reservistas Argentinos 195,Reservistas Argentinos 195,,4641-2455,,,,"Fútbol, voley, bochas, ajedrez.",,Reservistas Argentinos ,195,Liniers,Comuna 9,1408,C1408AIC
-58.4610819454646,-34.5997516160054,47,ASOCIACION SCHOLEM ALEIJEM,CLUB,CLUB,SEDE DEPORTIVA (TIENE DOS ANEXOS EN PROVINCIA),Maturin  2455,Maturin  2455,,4582-5719,administracion@sholem.org.ar,,www.sholem.org.ar,"Voley masculino y femenino, basket masculino, fútbol de campo, fútbol de salón, gimnasia deportiva, taekwondo.",salones - canchas,Maturin  ,2455,Paternal,Comuna 15,1416,C1416CTG
-58.4774263688278,-34.6782617328716,48,ATLETICO LUGANO,CLUB DE BARRIO,CLUB_DE_BARRIO,UNICA,Cafayate 4155,Cafayate 4155,,4602-0196 y 4601-8214,clublugano@telecentro.com.ar,,,"Baby, basquet, voley, handbol, gimnasia aerobica, iniciacion deportiva.",cancha - salones,Cafayate ,4155,Villa Lugano,Comuna 8,1439,C1439FUC
-58.5081579753981,-34.5785932504795,49,CLUB PUEYRREDON,CLUB DE BARRIO,CLUB_DE_BARRIO,UNICA,Larsen 2843,Larsen 2843,,4571-0156,,,,"Artes marciales, fútbol 5, billar, patin.",canchas - salones,Larsen ,2843,Villa Pueyrredon,Comuna 12,1419,C1419FPK
-58.4850199573162,-34.6140222832409,50,UNION ARGENTINA DE SORDOMUDOS  UAS,CLUB DE BARRIO,CLUB_DE_BARRIO,UNICA,Cuenca 1750,Cuenca 1750,,4581-6524,uas.union@gmail.com,,,"Futsal, basket, voley, artes marciales, danza.",salon - canchas,Cuenca ,1750,Villa Santa Rita,Comuna 11,1416,C1416BCR
-58.4630801892184,-34.6850917372259,51,JOVENES DEPORTISTAS - ASOCIACION CIVIL GENERAL SAVIO,CLUB DE BARRIO,CLUB_DE_BARRIO,UNICA,Soldado de la Frontera 5236,Soldado de la Frontera 5236,,4605-0701,jovenesdeportistas1994@gmail.com,JOVENES DEPORTISTAS,,"Fútbol 11, patin, gimnasia modeladora, localizada, aeróbica, danza arabe, hockey, baby, fútbol femenino, axe, musculacion, artes marciales, kick boxing, muai tai, boxeo.",biblioteca - canchas - salon,Soldado de la Frontera ,5236,Villa Lugano,Comuna 8,1439,C1439FPH
-58.3736450399583,-34.6448569765598,52,SANTA LUCIA,CLUB DE BARRIO,CLUB_DE_BARRIO,UNICA,Montes de Oca 1517,Montes de Oca 1517,,4301-0996  3529-7776,,,,"Escuelas deportivas de danza, boxeo, patín artístico fútbol y handbol y karate.",gimnasio - cancha - salon,Montes de Oca ,1517,Barracas,Comuna 4,1270,C1270ABC
-58.3738637682553,-34.6476130802853,53,BARRACAS JUNIORS,CLUB DE BARRIO,CLUB_DE_BARRIO,UNICA,Gral Hornos 1850,Gral Hornos 1850,,4301-7285  4301-0948,barracasjuniors@yahoo.com,,,"Tenis, padel, fútbol, taekwondo, gimnasia femenina. Academias infantiles de tenis, básquet y fútbol. Actividades culturales.",canchas - salones - gimnasio,Gral Hornos ,1850,Barracas,Comuna 4,1272,C1272AEB
-58.4605225314212,-34.5391284860756,54,NAUTICO BOUCHARDO,CLUB,CLUB,SEDE NUÑEZ (TIENEN OTRA SEDE EN SAN ISIDRO),Comodoro Rivadavia  1250,Comodoro Rivadavia  1250,,4702-9970 / 9837,administracion@cnb.org.ar    -    secretaria@cnb.org.ar,"Club Náutico Buchardo - Sede Núñez
Club deportivo",www.cnb.org.ar,"Tenis, fútbol, voley, básquet, gimnasia. Vela. Actividades culturales.",Juegos de mesa. Cine debate.,Comodoro Rivadavia  ,1250,Nu\u00f1ez,Comuna 13,1429,C1429DBO
-58.5078851008746,-34.5813930850897,55,PRO FOMENTO PUEYRREDON,CLUB DE BARRIO,CLUB_DE_BARRIO,UNICA,Bazurco 2922,Bazurco 2922,,4571-6950,jpueyrre@yahoo.com.ar,,,"Baby fútbol, voley, basket, patin artistico, taekwondo, gimnasia con aparatos .",canchas - salon,Bazurco ,2922,Villa Pueyrredon,Comuna 12,1419,C1419FLB
-58.4954493433047,-34.6238012086446,56,CLUB MITRE,CLUB DE BARRIO,CLUB_DE_BARRIO,UNICA,Segurola 1332,Segurola 1332,,4567-8185,clubmitre@hotmail.com,CLUB SOCIAL Y DEPORTIVO MITRE,,"baby fútbol, patin artistico, taekwondo,
tango, folklore",cancha - salon,Segurola ,1332,Velez Sarsfield,Comuna 10,1407,C1407AOB
-58.4460277764527,-34.6317359743701,58,GIMNASIO CHACABUCO,CLUB DE BARRIO,CLUB_DE_BARRIO,UNICA,Miro 750/58,Miro 750,,4432-5575 de 14 a 22 hs,clubgimnasiochacabuco@yahoo.com.ar,CLUB CHACABUCO,www.clubgchacabuco.com.ar,"Futsal - baby - Patín - Gimdance, Guitarra para menores, taekwondo, YOGA, TEATRO infantil, salsa, Kendo, bachata, sipalki, boxeo, Fútbol, gimnasia aero localizada, aikido, balroom, gimnasio musculación (más info en Tabla Anexo)",canchas - salon,Miro ,750,Parque Chacabuco,Comuna 7,1406,C1406CUP
-58.4643137946115,-34.6426844001293,59,FLORES CLUB,CLUB DE BARRIO,CLUB_DE_BARRIO,UNICA,Quirno 947,Quirno 947,,4612-0894,floresclub@argentina.com.ar,,,"Futsal, baby, patin, gimnasia deportiva, danza, artes marciales y yoga.",cancha - salones,Quirno ,947,Flores,Comuna 7,1406,C1406EZS
-58.4166603683439,-34.6272103199601,60,BUENOS AIRES SUR,CLUB DE BARRIO,CLUB_DE_BARRIO,UNICA,Cochabamba 3650,Cochabamba 3650,,4956-0487  (desde las 17.30 hs),,CLUB BUENOS AIRES SUR,,"Fútbol infantil (FAFI, FEFI y escuelita), Vóley femenino (adultas) y Taekwondo (infantil y adultos)",canchas - salon,Cochabamba ,3650,Boedo,Comuna 5,1252,C1252ABL
-58.4975832820641,-34.5660007245266,61,ISLANDIA,CLUB DE BARRIO,CLUB_DE_BARRIO,UNICA,Nuñez 5566,Nuñez 5566,,S/T,,,,"Gimnasia, karate, futsal, tango, murga, canotaje.",cancha - salon,Nu,5566,,,,
-58.5202757094054,-34.6073581490243,62,ORGANIZACION INDEPENDIENTE DEL DEPORTE ASOCIACION CIVIL,CLUB DE BARRIO,CLUB_DE_BARRIO,UNICA,Pedro Moran 4801,Pedro Moran 4801,,4568-5871,,,,patin,canchas,Pedro Moran ,4801,Villa Devoto,Comuna 11,1419,C1419HLO
-58.5225472755198,-34.6260015404845,63,ATENEO POPULAR VERSAILLES,CLUB DE BARRIO,CLUB_DE_BARRIO,UNICA,Roma 950,Roma 950,,4641-0112,nuevoapv@yahoo.com.ar,,www.ateneoversailles.com.ar,"Baby, voley, gimnasia, artes marciales, danza, cestobal, natación, tenis, boxeo.",biblioteca - natatorios - canchas - salones,Roma ,950,Versalles,Comuna 10,1408,C1408BZJ
-58.5237182697991,-34.6055824613677,64,SOCIAL HABANA,CLUB DE BARRIO,CLUB_DE_BARRIO,UNICA,Av. Lastra 4175,Av. Lastra 4175,,450-41065,,,,"gimnasia deportiva, artes marciales, ajedrez, danza arabe, yoga, folklore.",salon,Av. Lastra ,4175,Villa Devoto,Comuna 11,1419,C1419BYG
-58.5100590023725,-34.6592327006052,65,GLORIAS ARGENTINAS,CLUB DE BARRIO,CLUB_DE_BARRIO,UNICA,Bragado 6875,Bragado 6875,,4687-8576,,Club-Glorias-Argentinas-Futbol-Infantil    y    Club-Glorias-Argentinas,www.clubgloriasargentinas.com,"Baby fútbol, futsal, gimnasia deportiva, voley, taekwondo, tango, salsa, merengue",canchas - salon,Bragado ,6875,Mataderos,Comuna 9,1440,C1440ADM
-58.4605916714591,-34.6515993137541,66,PINTITA,CLUB DE BARRIO,CLUB_DE_BARRIO,UNICA,Mariano Acosta 2005,Mariano Acosta 2005,,4611-1181,,,,"Baby, futsal, patín.",canchas - salon,Mariano Acosta ,2005,Flores,Comuna 7,1407,C1407KCO
-58.4393183846888,-34.6405806095327,67,PEÑAROL ARGENTINO,CLUB DE BARRIO,CLUB_DE_BARRIO,UNICA,Zañartu 1547,Zañartu 1547,,4924-2111,,CLUB PEÑAROL ARGENTINO,,"Atletismo, baby, futsal, voley, gimnasia artistica, yoga, gimnasia aerobica, aikido, kundo, taekwondo, patin.
",canchas - salones,Za,1547,,,,
-58.5246632531849,-34.6518813541443,68,JUVENTUD DE LINIERS,CLUB DE BARRIO,CLUB_DE_BARRIO,UNICA,Montiel 1174,Montiel 1174,,4641-9295,,Juventud de Liniers,www.juventuddeliniers.org.ar,"Futbol infantil, patín artístico, gimnasia artística, taekwondo, gimnasia damas, yoga, kick boxing sistema ruso y danza. Actividades culturales.",cancha - salon,Montiel ,1174,Liniers,Comuna 9,1408,C1408FVX
-58.4485204530849,-34.595102936907,70,ATLANTA,CLUB,CLUB,UNICA,Humboldt 374,Humboldt 374,,4856-5999,club_atlanta@hotmail.com,,,"Baby fútbol, futsal, boxeo, artes marciales, musculacion, patin, fútbol 11, voley, basquet.",natatorios - salones - canchas - bibliotecas,Humboldt ,374,Villa Crespo,Comuna 15,1414,C1414CSH
-58.4731793020509,-34.6438069611777,71,AMERICA DEL SUD,CLUB DE BARRIO,CLUB_DE_BARRIO,UNICA,Francisco Bilbao 3760,Francisco Bilbao 3760,,4671-6946,,,,"Fútbol (escuelita y competición -FAFI-), Futsal (AFA), Taekwondo, Patín, Acrobacia, Gimnasia modeladora y aeróbica, Gimnasio de musculación, Natación (escuela y pileta libre), Aquagym y Basquet masculino. Danza árabe y Tango.",natatorio climatizado - salon - gimnasio - cancha,Francisco Bilbao ,3760,Parque Avellaneda,Comuna 9,1407,C1407HOF
-58.5212666962345,-34.636465592631,72,CLUB DEL PERSONAL DE DIRECCION DEL FERROCARRIL DOMINGO FAUSTINO SARMIENTO - FCDFS,CLUB DE BARRIO,CLUB_DE_BARRIO,UNICA,Reservistas Argentinos 219,Reservistas Argentinos 219,,4644-2360   4642-9845,clubferrocarrildfs@hotmail.com,,,"Folklore, tango, gimnasia femenina, fútbol 7 y 9, natación, tenis, pelota paleta, pádel, vóley. Actividades culturales.
",cancha - salon - natatorio,Reservistas Argentinos ,219,Liniers,Comuna 9,1408,C1408AIE
-58.5074149173304,-34.6472954812897,73,"CLUB SOCIAL, CULTURAL Y DEPORTIVO LARRAZABAL",CLUB DE BARRIO,CLUB_DE_BARRIO,UNICA,Larrazabal 829,Larrazabal 829,,4642-7089,larrazabalclubsocial@gmail.com,,,"Artes marciales, yoga. Actividades culturales.",salones,Larrazabal ,829,Liniers,Comuna 9,1440,C1440CUA
-58.4110902793359,-34.5718629104069,74,CLUB DE AMIGOS,CLUB,CLUB,UNICA,Figueroa Alcorta 3885,Figueroa Alcorta 3885,,4802-3058 / 4807-4035  / 4801-1213,info@clubdeamigos.org.ar,Club de Amigos,www.clubdeamigos.org.ar,"basquet, fútbol, gimnasia, hockey, artes marciales, natacion, rugby, tenis, voley, fitness.",canchas - gimnasio - natatorios,Figueroa Alcorta ,3885,Palermo,Comuna 14,1425,C1425CLE
-58.4690966546345,-34.5943848622373,75,CIRCULO LA PATERNAL,CLUB DE BARRIO,CLUB_DE_BARRIO,UNICA,Paz Soldan 5035,Paz Soldan 5035,,4553-4137,circulolapaternal@hotmail.com,circulo la paternal,,"Baby, patín, voley, gimnasia, artes marciales, pelota paleta, fútbol fem. y masc. infantil. Artes marciales, MMA (artes marciales mixtas combinadas con gimnasia), entrenamiento funcional. Danzas, danza clásica. Activ culturales (más info en Tabla Anexo)",canchas - salones,Paz Soldan ,5035,Paternal,Comuna 15,1427,C1427DSG
-58.4988218460634,-34.6021818827831,76,CLUB DE GIMNASIA Y ESGRIMA DE VILLA DEL PARQUE,CLUB DE BARRIO,CLUB_DE_BARRIO,UNICA,Tinogasta 3455,Tinogasta 3455,,4501-1518 int. 11 y 12  FAX: 4501-2438,gevpadministracion@fibertel.com.ar,Club Gevp,www.gevparque.org,"Básquet, Cestoball, Danza, Gim. rítmica, artística, aeróbica y suave, Yoga, Gim. de musculación, Indoor cycling, Pilates, Tango, Fútbol, Vóley masc. y fem., Taekwondo, Buceo, Natación y Tenis. Activ. Culturales (más info en Tabla Anexo)",canchas - salones - gimnasios - natatorios climatizados,Tinogasta ,3455,Villa Del Parque,Comuna 11,1417,C1417EIC
-58.434349118353,-34.6236708658365,77,CLUB OESTE,CLUB DE BARRIO,CLUB_DE_BARRIO,UNICA,Jose M. Moreno 446,Jose M. Moreno 446,,4923-7509,cluboeste2003@yahoo.com.ar,Club-Oeste Caballito,www.webcluboeste.com.ar,"Árabe, básquet, axe, danza, gim articular, escuela de fútbol, fútbol infantil, gim. artística, ninjutsu, patín escuela, taekwondo, karate, tango, voley adultos, tai-chi-chuan, yoga tt, salsa. Actividades culturales.",canchas - salones,Jose M. Moreno ,446,Caballito,Comuna 6,1424,C1424AAR
-58.422974627805,-34.628763341448,78,ESTRELLA DE BOEDO,CLUB DE BARRIO,CLUB_DE_BARRIO,UNICA,Constitucion 4151,Constitucion 4151,,4921-9310,estrelladeboedo@yahoo.com.ar,CLUB ESTRELLA DE BOEDO,www.estrelladeboedo.com,"Baby, futsal, básquet, voley, gimnasia, gimnasia deportiva, hándbol, patín, futsal para chicos con capacidades especiales. Actividades culturales.",biblioteca - canchas - salon - natatorio,Constitucion ,4151,Boedo,Comuna 5,1254,C1254ABU
-58.4721516536416,-34.5570239202985,79,MARIANO MORENO,CLUB DE BARRIO,CLUB_DE_BARRIO,UNICA,Gral Ramon Freire 3151,Gral Ramon Freire 3151,,5354-5332,info@clubmarianomoreno.org.ar,Club Mariano Moreno - Ajedrez,www.clubmarianomoreno.org.ar,"ajedrez, juegos de mesa, bIllar",salon,Gral Ramon Freire ,3151,Coghlan,Comuna 12,1429,C1429ASE
-58.4161727685791,-34.5878774640264,80,BOCHIN CLUB,CLUB DE BARRIO,CLUB_DE_BARRIO,UNICA,Julian Alvarez 2355,Julian Alvarez 2355,,4823-7507,clubelbochin@gmail.com,,,"Pelota Paleta, Arquería, Yoga. Actividades culturales.",canchas - salones,Julian Alvarez ,2355,Palermo,Comuna 14,1425,C1425DHI
-58.4978220406996,-34.5888625659513,81,LA EMILIANA,CLUB DE BARRIO,CLUB_DE_BARRIO,UNICA,Terrada 4243,Terrada 4243,,4571-1271,clublaemiliana@yahoo.com.ar,CLUB LA EMILIANA,,"Juegos de salón, boxeo, defensa personal, taekwondo, full contact, karate, patín, gimnasia rítmica, gimnasia para adultos, folklore, tango, ajedrez. Actividades culturales.",salon - cancha de bochas,Terrada ,4243,Villa Pueyrredon,Comuna 12,1419,C1419DKK
-58.3766617039229,-34.6074333671892,83,ASOCIACION BANCARIA,CLUB,CLUB,SEDE ADMINISTRATIVA (Y TIENEN ANEXOS EN PROVINCIA),Maipu 62 3º 0f 17,Maipu 62,,4343-6126 / 4342-2117,abadargentina@gmail.com,ASOCIACION BANCARIA ARGENTINA DE DEPORTES,www.abadargentina.com.ar,"Fútbol, básquet, tenis, tiro, pesca, voley, bowling, golf y ajedrez.","Sin instalaciones, utilizan instalaciones de asociaciones y clubes miembros",Maipu ,62,San Nicolas,Comuna 1,1084,C1084ABB
-58.4353594189412,-34.6119665067839,84,PREMIER,CLUB DE BARRIO,CLUB_DE_BARRIO,UNICA,Campichuelo 472,Campichuelo 472,,4982-7637,,Club Premier,www.clubpremier.org.ar,"Danza, baby, patin, taekwondo, yoga, voley, aikido, kung-fu, gimnasia artistica, tela y trapecio.",cancha - salones,Campichuelo ,472,Caballito,Comuna 6,1405,C1405BOF
-58.4926470995387,-34.5678921394738,86,RIO DE LA PLATA,CLUB DE BARRIO,CLUB_DE_BARRIO,UNICA,Ibera 5257,Ibera 5257,,4546-0380,clubriodelaplata@fibertel.com.ar,,,"Fútbol infantil, voley, taekwondo, patin, tenis de mesa, musculacion, yoga, danzas, boxeo.",cancha - salones,Ibera ,5257,Villa Urquiza,Comuna 12,1431,C1431AEM
-58.3882851964566,-34.6019071133806,87,VOLUNTARIOS SIN FRONTERAS,CLUB DE BARRIO,CLUB_DE_BARRIO,ADMINISTRATIVA,"Tucuman 1516, 4to. A",Tucuman 1516,,4373-0509,,,,Futbol Femenino y Masculino - Volley Femenino - Artes Marciales Femenino y Masculino.,,Tucuman ,1516,San Nicolas,Comuna 1,1050,C1050AAF
-58.4976628982199,-34.6107001970808,89,PACIFICO,CLUB DE BARRIO,CLUB_DE_BARRIO,UNICA,Santo Tome 3823,Santo Tome 3823,,4567-2791,clubpacifico12deoctubre@gmail.com,,,"Baby fútbol, voley, Gimnasia Deportiva, futsal, Artes Marciales, Ajedrez, Capoeira.",salones - cancha - biblioteca,Santo Tome ,3823,Villa Del Parque,Comuna 11,1417,C1417GGE
-58.4320907805666,-34.6161586226769,90,ITALIANO,CLUB DE BARRIO,CLUB_DE_BARRIO,CENTRAL Sede social,Av. Rivadavia 4731,Av. Rivadavia 4731,,4901-1061/63,clubitaliano@clubitaliano.com.ar,Club Italiano - Buenos Aires Liga deportiva,www.clubitaliano.com.ar,"Básquet, fútbol, gimnasia artística, gimnasia rítmica, hockey, judo, natación, pelota paleta, iniciación deportiva, rugby, tenis, vóley, yoga, kendo, sipalki, taekwondo, danzas árabes, folklore. Actividades culturales. Colonia de vacaciones.",canchas - salones - natatorio,Av. Rivadavia ,4731,Caballito,Comuna 6,1424,C1424CEC
-58.4461648435664,-34.6527431062677,91,ITALIANO,CLUB DE BARRIO,CLUB_DE_BARRIO,ANEXO deportivo,Av. Riestra 2770,Av. Riestra 2770,,,clubitaliano@clubitaliano.com.ar,Club Italiano - Buenos Aires Liga deportiva,www.clubitaliano.com.ar,"Básquet, fútbol, gimnasia artística, gimnasia rítmica, hockey, judo, natación, pelota paleta, iniciación deportiva, rugby, tenis, vóley, yoga, kendo, sipalki, taekwondo, danzas árabes, folklore. Actividades culturales. Colonia de vacaciones.",canchas - salones - natatorio,Av. Riestra ,2770,Villa Soldati,Comuna 8,1437,C1437HJR
-58.4848676617077,-34.5894440694106,92,ARQUITECTURA,CLUB DE BARRIO,CLUB_DE_BARRIO,UNICA,Avda. Francisco Beiro 2116,Av. Francisco Beiro 2116,,4523-7306,clubarquitectura@hotmail.com,,,"Natación, Tenis, Hockey femenino, Fútbol, Basquet, Patín, Yoga, Taekwondo, Gimnasia artística, Gimnasia (damas y caballeros) y Boxeo. Folklore y Tango.",cancha - salones - natatorio climatizado - canchas de tenis -cancha de hockey sintetica,Av. Francisco Beiro ,2116,Agronomia,Comuna 15,1419,C1419HXN
-58.4214953349085,-34.650633983018,93,JUVENTUD DE LA NUEVA ERA,CLUB DE BARRIO,CLUB_DE_BARRIO,UNICA,Gral. J. J. Valle 2972,Gral. J. J. Valle 2972,,4911-9022,,ASOCIACION CULTURAL Y DEPORTIVA JUVENTUD DE LA NUEVA ERA,,"baby fútbol, taekwondo y voley",cancha,Gral. J. J. Valle ,2972,Nueva Pompeya,Comuna 4,1437,C1437CQD
-58.484894350879,-34.564803518002,94,SUNDERLAND CLUB,CLUB DE BARRIO,CLUB_DE_BARRIO,UNICA,Lugones 3161,Lugones 3161,,4544-1649 / 4541-9776,,,,"Fútbol, Basquet, Patín y Taekwondo. Clases de tango, salsa y bachata.",canchas - salon,Lugones ,3161,Villa Urquiza,Comuna 12,1430,C1430ECK
-58.4279822883004,-34.6443055769624,95,RIESTRA,CLUB,CLUB,CENTRAL,Del Bañado 2353/59,Del Bañado 2353,,4918-0455,mundoriestra@hotmail.com,,www.mundoriestra.com.ar,"Yoga, gimnasia, patin, tango, salsa y merengue. Fútbol. Actividades culturales.",salones - canchas,Del Ba,2353,,,,
-58.4420687351032,-34.6529969222287,96,RIESTRA,CLUB,CLUB,ANEXO,Varela y Ana Maria Janer,Varela y Ana Maria Janer,,4918-0455,mundoriestra@hotmail.com,,www.mundoriestra.com.ar,"yoga, gimnasia, patin, teatro, tango, salsa y merengue y futball",salones - canchas,Varela y Ana Maria Janer,,,,,
-58.4816772983476,-34.6018791321959,97,VILLA SAHORES,CLUB DE BARRIO,CLUB_DE_BARRIO,UNICA,Santo Tome 2496,Santo Tome 2496,,4584-7174,clubvillasahores@gmail.com,VILLA SAHORES,www.clubvillasahores.com.ar,"Basquet, Fútbol, Natación, Aquagym, Patín artístico, Vóley, Aikido, Taekwondo, Cross training, Kick Boxing, Muay Thai, Tai Chi, Boxeo, Gim. aeróbica, Gim. artística, Tela. Tango, Ajedrez. Ping Pong. Activ. Culturales (más info en Tabla Anexo)",canchas - biblioteca - natatorio - salones- gimnasio - quincho,Santo Tome ,2496,Villa Del Parque,Comuna 11,1417,C1417GFD
-58.4194253287922,-34.6109183541889,99,DEPROP,CLUB DE BARRIO,CLUB_DE_BARRIO,UNICA,Rivadavia 3777,Rivadavia 3777,,4981-9867 / 4982-3385,,ESCUELA DE PELOTA PALETA DEPROP,,"Pelota Paleta competitiva y recreativa (niños, jóvenes y mujeres), Taekwondo (ambos sexos, todas las edades), Gimnasio con aparatos y Gimnasia para damas.",cancha - gimnasio - salones,Rivadavia ,3777,Almagro,Comuna 5,1204,C1204AAC
-58.4782317815247,-34.6066732560765,100,RESURGIMIENTO,CLUB DE BARRIO,CLUB_DE_BARRIO,UNICA,Gral. Artigas 2262,Gral. Artigas 2262,,4585-4960,resurgimiento@fibertel.com.ar,CENTRO CULTURAL RESURGIMIENTO,,"Fútbol, gimnasia aeróbica, gimnasia deportiva, artística, circo, acrobacia, artes marciales (taekwondo), salsa, merengue, danza árabe, clásica, jazz, folklore, hip hop, tango, yoga, gimnasia expresiva.  Actividades culturales.",biblioteca - cancha - salon,Gral. Artigas ,2262,Villa Del Parque,Comuna 11,1416,C1416ALB
-58.4835082041521,-34.6292691016415,101,LA FLORESTA,CLUB DE BARRIO,CLUB_DE_BARRIO,UNICA,Avellaneda 3885,Avellaneda 3885,,4671-7851 / 4626,clublafloresta@hotmail.com,,,"Gimnasia femenina, artes marciales, tango, natación, yoga, ajedrez Escuela de fútbol. Actividades culturales.",biblioteca - cancha - salones -  natatorio,Avellaneda ,3885,Floresta,Comuna 10,1407,C1407EJF
-58.4740037427796,-34.6832755302739,102,LUGANO FOOTBALL CLUB,CLUB DE BARRIO,CLUB_DE_BARRIO,UNICA,Lisandro de la Torre 4640,Lisandro de la Torre 4640,,4605-6153,,,,"Boxeo, Kick boxing, Taekwondo, Salsa, Danza clásica, Tap, Jazz, Gimnasia rítmica, Hip hop y Pilates sobre piso.Actividades culturales.",salones,Lisandro de la Torre ,4640,Villa Lugano,Comuna 8,1439,C1439GFH
-58.4816136176324,-34.6838426824127,103,YUPANQUI,CLUB DE BARRIO,CLUB_DE_BARRIO,UNICA,Guamini 4512,Guamini 4512,,4601-4477,,,,"Boxeo mixto, defensa personal, tenis de mesa, gimnasia, musculación, danzas árabes, artes marciales, natación, patín, básquet, danzas. Actividades culturales.",cancha - salon - natatorio,Guamini ,4512,Villa Lugano,Comuna 8,1439,C1439HAB
-58.4950142681205,-34.5625691878968,104,MANUEL BELGRANO,CLUB DE BARRIO,CLUB_DE_BARRIO,SEDE SOCIAL EN CABA Y ANEXO EN ESCOBAR,Crisologo Larralde 5255,Crisologo Larralde 5255,,4541-1551,clubmanuelbelgrano@gmail.com,Club Manuel Belgrano - Rugby & Hockey,www.clubmanuelbelgrano.com.ar,hockey - rugby,canchas - salones,Crisologo Larralde ,5255,Saavedra,Comuna 12,1431,C1431APK
-58.4482090226481,-34.6075527578871,105,ASOCIACION CIRCULO ITALO ARGENTINO LIBER PIEMONT,CLUB DE BARRIO,CLUB_DE_BARRIO,UNICA,Gral. Manuel Rodriguez 1191,Gral. Manuel Rodriguez 1191,,4581-5189,,,,"Yoga, artes marciales, tango, billar, gimnasia, danzas clásicas, clases de tango y folklore. Actividades culturales.",cancha - salones - biblioteca,Gral. Manuel Rodriguez ,1191,Caballito,Comuna 6,1416,C1416CMA
-58.4458777559323,-34.5972587910709,106,CAPOEIRA,CLUB DE BARRIO,CLUB_DE_BARRIO,UNICA,Padilla 1008,Padilla 1008,,4857-2851,eventos@capoeira.com,,www.capoeira.com.ar,"Baby, basket, gimnasia deportiva, tango, hockey, tenis.",canchas - salones - natatorio,Padilla ,1008,Villa Crespo,Comuna 15,1414,C1414AGR
-58.4979847578597,-34.5919054830239,107,EL TALAR,CLUB DE BARRIO,CLUB_DE_BARRIO,UNICA,Nueva York 2944/60,Nueva York 2944,,4574-1918,"clubeltalar@gmail.com  -  clubeltalar@yahoo.com.ar 
",,,"Basquet masc y fem (recreativo y federado desde infantiles hasta veteranos), Fútbol masc (recreativo y federado desde infantiles hasta veteranos), Patín artístico femenino, Taekwondo (todas las edades), Fitness, Pilates y Gim. de musculación",canchas - salon,Nueva York ,2944,Agronomia,Comuna 15,1419,C1419HCR
-58.4837046896711,-34.6676921711268,108,PAMPERO,CLUB DE BARRIO,CLUB_DE_BARRIO,UNICA,Larrazabal 3035,Larrazabal 3035,,4604-4500,,CLUB PAMPERO,www.clubpampero.com.ar,"Baby, artes marciales, tango, folklore y patin artistico. Boxeo.",cancha - salon,Larrazabal ,3035,Villa Lugano,Comuna 8,1439,C1439ECE
-58.4900534035812,-34.5749927774266,109,CIRCULO URQUIZA,CLUB DE BARRIO,CLUB_DE_BARRIO,UNICA,F. D. Roosevelt 5345,F. D. Roosevelt 5345,,4521-8873  4523-7506,,,www.cgunatacion.com.ar,"Pelota paleta, básquet masculino, voley femenino, taekwondo, gimnasia artística, patín, gimnasio aparatos, yoga, danzas orientales, gimnasia aeróbica, natación, gimnasia acrobática.",canchas - salones - natatorio,F. D. Roosevelt ,5345,Villa Urquiza,Comuna 12,1431,C1431BZK
-58.4167746298212,-34.5630140605633,110,ALEMAN DE EQUITACION,CLUB,CLUB,UNICA,Av. Dorrego 4045,Av. Dorrego 4045,,4772-6289,caehipico@hotmail.com,Club Alemán de Equitación,www.clubalemandeequitacion.com,Equitacion - salto - volteo,pistas - caballerizas - pista cubierta - natatorio - boxes - parque  - vallas - confiterias - salon de eventos,Av. Dorrego ,4045,Palermo,Comuna 14,1425,C1425GBE
-58.4630105285509,-34.5789573371151,111,SPORTING SOCIAL CLUB,CLUB DE BARRIO,CLUB_DE_BARRIO,UNICA,Heredia 1253,Heredia 1253,,4551-9079,,CLUB SPORTING VILLA ORTUZAR,,"Patin, gimnasia deportiva, taekwondo, tango, yoga, baile para chicos, salsa, fútbol.",salones - cancha,Heredia ,1253,Villa Ortuzar,Comuna 15,1427,C1427CNU
-58.4776226828115,-34.5990348833863,112,RAULIES,CLUB DE BARRIO,CLUB_DE_BARRIO,UNICA,Raulies 2043,Raulies 2043,,4523-9715,csydraulies@gmail.com,,,Arquería,salon - cancha,Raulies ,2043,Paternal,Comuna 15,1427,C1427DVC
-58.3979184932456,-34.6349760525181,113,PARQUE DE LOS PATRICIOS,CLUB DE BARRIO,CLUB_DE_BARRIO,CENTRAL,Alberti  2135,Alberti  2135,,4308-2925,clubparquedelospatricios@yahoo.com.ar,,,"Taekwondo, patin, voley, fútbol, FAFI, FEFUTIN, danza, gimnasia adultos.",cancha - salon,Alberti  ,2135,Parque Patricios,Comuna 4,1247,C1247AAS
-58.4044128482166,-34.6266522835378,114,PARQUE DE LOS PATRICIOS,CLUB DE BARRIO,CLUB_DE_BARRIO,ANEXO,Constitución 2827,Constitución 2827,,4308-2925,clubparquedelospatricios@yahoo.com.ar,,,"Taekwondo, patin, voley, fútbol, FAFI, FEFUTIN, danza, gimnasia adultos.",cancha - salon,Constitución ,2827,San Cristobal,Comuna 3,1254,C1254AAU
-58.4525809158514,-34.6176314913306,115,CABALLITO JUNIORS,CLUB DE BARRIO,CLUB_DE_BARRIO,UNICA,Nicasio Oroño 566,Nicasio Oroño 566,,4431-9600,caballito566@hotmail.com,,,"Fútbol (escuelita y FAFI), Futsal (AFA), Gimnasia postural, Gimnasia deportiva y Taekwondo.",2 canchas - 1 salon,Nicasio Oro,566,Caballito,Comuna 6,1405,C1405AQD
-58.4963322143621,-34.5679299825083,116,CALIFORNIA,CLUB DE BARRIO,CLUB_DE_BARRIO,UNICA,Andonaegui 3347,Andonaegui 3347,,4541-9670,,,,"Baby fútbol, patín, voley, taekwondo, pilates.",1 cancha - 1 salon,Andonaegui ,3347,Villa Urquiza,Comuna 12,1431,C1431DWS
-58.4318390569322,-34.5874947821095,117,EROS,CLUB DE BARRIO,CLUB_DE_BARRIO,UNICA,Uriarte 1609,Uriarte 1609,,4832-1313,,,,"baby, artes marciales, voley",1 cancha - 2 salones,Uriarte ,1609,Palermo,Comuna 14,1414,C1414DAQ
-58.4382064099927,-34.5933838128543,118,CLUB FULGOR DE VILLA CRESPO,CLUB DE BARRIO,CLUB_DE_BARRIO,UNICA,Loyola 828,Loyola 828,,4778-1511 a partir de las 16 hs,,,,"baby, patin, artes marciales, tango, folklore, yoga, ajedrez",1 cancha - 1 salon,Loyola ,828,Villa Crespo,Comuna 15,1414,C1414AUR
-58.4143365913531,-34.6561391467968,119,FRANJA DE ORO,CLUB DE BARRIO,CLUB_DE_BARRIO,UNICA,Av. Amancio Alcorta 3950,Av. Amancio Alcorta 3950,,4911-1566/ 4912-0965,correo@clubfranjadeoro.com.ar,Franja de Oro,www.clubfranjadeoro.com.ar,"Taekwondo, gimnasia deportiva, gimnasia, patín, fisicoculturismo, baby, futsal, yoga, arquería, padel, pesca deportiva, salsa y merengue, natación y yudo. Actividades culturales.",3 canchas-3 salones- natatorio,Av. Amancio Alcorta ,3950,Nueva Pompeya,Comuna 4,1437,C1437HUW
-58.4152975667192,-34.6558711570507,120,FRANJA DE ORO,CLUB DE BARRIO,CLUB_DE_BARRIO,UNICA,Av. Amancio Alcorta 4007,Av. Amancio Alcorta 4007,,4911-1566/ 4912-0965,correo@clubfranjadeoro.com.ar,Franja de Oro,www.clubfranjadeoro.com.ar,"Taekwondo, gimnasia deportiva, gimnasia, patín, fisicoculturismo, baby, futsal, yoga, arquería, padel, pesca deportiva, salsa y merengue, natación y yudo. Actividades culturales.",3 canchas-3 salones- natatorio,Av. Amancio Alcorta ,4007,Nueva Pompeya,Comuna 4,1437,C1437HUK
-58.408729244824,-34.651485124597,121,CLUB MIRIÑAQUE,CLUB DE BARRIO,CLUB_DE_BARRIO,UNICA,Lynch 3471,Lynch 3471,,4911-1029,,,,"taekwondo, gimnasia deportiva, baby, futsal, basket, patin, voley, yoga",1 cancha - 2 salones,Lynch ,3471,Nueva Pompeya,Comuna 4,1437,C1437HOA
-58.4894138092118,-34.6190529115857,122,CLUB DE GIMNASIA Y ESGRIMA DE VELEZ SARSFIELD,CLUB,CLUB,UNICA,Joaquin V. Gonzalez 1511,Joaquin V. Gonzalez 1511,,4567-6971,,,,"baby, patin, gimnasia, folklore,Taekwondo,futsal,gimnasio",1 cancha - 2 salones,Joaquin V. Gonzalez ,1511,Villa Santa Rita,Comuna 11,1407,C1407DAC
-58.4062990863102,-34.6330464753626,123,CLUB BRISTOL,CLUB DE BARRIO,CLUB_DE_BARRIO,UNICA,La Rioja 1869,La Rioja 1869,,4308-5504,,,,"baby, patin, taekwondo, tango",2 canchas - 1 salon,La Rioja ,1869,Parque Patricios,Comuna 4,1244,C1244ABM
-58.4810308002528,-34.6152708018885,124,IMPERIO JUNIORS,CLUB DE BARRIO,CLUB_DE_BARRIO,UNICA,Cesar Diaz 3047,Cesar Diaz 3047,,4581-8682 / 4585-0833,clubimperiojuniors@hotmail.com,,www.clubimperio.com.ar,"Básquet, boxeo, buceo, yoga, gimnasia aeróbica, gimnasia artística y acrobática, waterpolo, natación, aquagym, aguas abiertas, pileta libre, iniciación deportiva, patín, voley veteranos, artes marciales, tango, folklore.","biblioteca, 5 canchas, 3 salones, natatorio climatizado",Cesar Diaz ,3047,Villa Santa Rita,Comuna 11,1416,C1416DWG
-58.4658400084455,-34.6611481797235,125,LIGA AMATEUR DE FUTBOL DE FLORES ASOCIACION CIVIL,CLUB DE BARRIO,CLUB_DE_BARRIO,UNICA,Av. Castañares 4125,Av. Castañares 4125,,4602-0711,info@laff.com.ar,LIGA AMATEUR FUTBOL FLORES,www.laff.com.ar,"Fútbol 11, escuela de fútbol.",4 canchas,Av. Casta,4125,Villa Lugano,Comuna 8,1407,C1407KUI
-58.5253720907375,-34.6206727886614,126,VILLA REAL,CLUB DE BARRIO,CLUB_DE_BARRIO,UNICA,Tinogasta 5739,Tinogasta 5739,,4642-0597,,,,"Baby fútbol, Gimnasia, Artes Marciales (boxeo, full contact, kick boxing, katate, yudo), danza (clasica, arabe), acrobacia en telas, pilates, spining.",Cancha - Gimnasio - 1 Salon,Tinogasta ,5739,Villa Real,Comuna 10,1408,C1408BGI
-58.5066926683689,-34.6273138354317,127,GIOVANNI GENTILE,CLUB DE BARRIO,CLUB_DE_BARRIO,UNICA,Juan A. Garcia 5270,Juan A. Garcia 5270,,4568-2588   y   4566-8448,giovannigentile@fibertel.com.ar,,,"Gimnasia, tango, ajedrez, taekwondo, ping pong, yoga. Actividades culturales.",2 salones - 1 cancha (bochas),Juan A. Garcia ,5270,Velez Sarsfield,Comuna 10,1407,C1407FXN
-58.4484186902561,-34.5738105552418,128,COLEGIALES,CLUB DE BARRIO,CLUB_DE_BARRIO,UNICA,Teodoro Garcia 2856/60,Teodoro Garcia 2856,,4551-5193,,CLUB DYSCOLEGIALES,www.clubdyscolegiales.com.ar  y  twitter: @ccolegiales,"Básquet, artes marciales (taekwondo, karate, aikido), capoeira, danza, ajedrez, natación, yoga. Actividades culturales.","gimnasio, canchas, salones,resto de basket",Teodoro Garcia ,2856,Colegiales,Comuna 13,1426,C1426DNB
-58.4862552840371,-34.5600371087135,129,APOLO MACHAIN SAAVEDRA,CLUB DE BARRIO,CLUB_DE_BARRIO,UNICA,Machain 3517,Machain 3517,,4541-1652,,,,"Danza, tango, taekwondo, gimnasia aerobica - modeladora - con aparatos",1 salon,Machain ,3517,Saavedra,Comuna 12,1430,C1430DYK
-58.4734613240054,-34.611275146971,130,"ASOCIACION VECINAL VILLA GENERAL MITRE, BIBLIOTECA POPULAR CIENCIA Y LABOR",CLUB DE BARRIO,CLUB_DE_BARRIO,UNICA,Gral. Cesar Diaz 2451,Gral. Cesar Diaz 2451,,4582-9779,"cienciaylabor@gmail.com
",Biblioteca Ciencia y Labor - Pagina Oficial Club social,,"Baby, taekwondo, salsa, tango, folklore, ritmos latinos, danza jazz, patin, fútbol femenino. Actividades culturales.",1 cancha y 2 salones,Gral. Cesar Diaz ,2451,Villa Gral. Mitre,Comuna 11,1416,C1416DVU
-58.4614711509137,-34.5451562583702,131,CLUB JUVENTUD DE NUÑEZ,CLUB DE BARRIO,CLUB_DE_BARRIO,UNICA,11 de Septiembre 3635,11 de Septiembre 3635,,4703-1879,,,,"boxeo, taekwondo, pilates",2 salones, de Septiembre ,11,Boca,Comuna 4,1155,C1155AAA
-58.4212978926574,-34.6280472340471,132,FUNDACION NUEVA GENERACION DEL DEPORTE,CLUB DE BARRIO,CLUB_DE_BARRIO,ANEXO,Quintino Bocayuva 1241,Quintino Bocayuva 1241,,4924-8387/1323,,,,"baby, basquet, patin,gimn",2 canchas - 1 salon - biblioteca,Quintino Bocayuva ,1241,Boedo,Comuna 5,1257,C1257ABC
-58.4907432845799,-34.6424863997064,133,FUNDACION NUEVA GENERACION DEL DEPORTE,CLUB DE BARRIO,CLUB_DE_BARRIO,CENTRAL,Av. Juan Bautista Alberdi 4563,Av. Juan Bautista Alberdi 4563,,4924-8387/1323,,,,"baby, basquet, patin,gimn",2 canchas - 1 salon - biblioteca,Av. Juan Bautista Alberdi ,4563,Villa Luro,Comuna 10,1407,C1407GZM
-58.4574700162725,-34.6393462888169,134,DEPORTIVO BUENOS AIRES,CLUB DE BARRIO,CLUB_DE_BARRIO,UNICA,Pedernera 939,Pedernera 939,,4619-1829  4637-1839,,,,"Baby, futsal, patín, taekwondo, gimnasia deportiva, tai chi chuan, patín artístico, fútbol competitivo infantil, danza. Actividades culturales.",2 canchas - 3 salones - biblioteca,Pedernera ,939,Flores,Comuna 7,1406,C1406EES
-58.3938890681049,-34.5988926298655,136,CLUB ARGENTINO DE AJEDREZ,CLUB DE BARRIO,CLUB_DE_BARRIO,UNICA,Paraguay 1858,Paraguay 1858,,4811-9412,club@argentinodeajedrez.org.ar,Club Argentino de Ajedrez - Oficial,www.www.argentinodeajedrez.org.ar,Ajedrez y Go,biblioteca - 2 salones,Paraguay ,1858,Recoleta,Comuna 2,1121,C1121ABB
-58.431726075155,-34.5798837645442,137,PALERMO,CLUB DE BARRIO,CLUB_DE_BARRIO,UNICA,Fitz  Roy 2238,Fitz Roy 2238,,4771-0328/ 4778-1419,,,,"baby fútbol, voley, basquet, artes
marciales, arqueria",2 canchas - 3 salones,Fitz Roy ,2238,Palermo,Comuna 14,1425,C1425FVD
-58.369991419858,-34.6227702827433,138,PARQUE TELMO,CLUB DE BARRIO,CLUB_DE_BARRIO,UNICA,Cochabamba 311,Cochabamba 311,,4300-5834/8664,,A.C.PARQUE TELMO,,baby-futsal-voley-handbol,1 cancha-1 salon-1 biblioteca,Cochabamba ,311,San Telmo,Comuna 1,1150,C1150AAC
-58.4773855942018,-34.6883062350822,139,EL IDEAL,CLUB DE BARRIO,CLUB_DE_BARRIO,UNICA,Montiel 5142,Montiel 5142,,4601-1682,elidealmail@gmail.com - clubelideal@hotmail.com,,,"Escuela de fútbol, FUTSAL, Patín artístico, Gimnasia rítmica, Capoeira, Taekwondo, Kick boxing, Jiu Jit Su, Boxeo, Muay Thai, Danzas árabes, Aerobic, Tango y Salsa. Actividades culturales.",1 cancha - 3 salones,Montiel ,5142,Villa Riachuelo,Comuna 8,1439,C1439HFJ
-58.5116931478199,-34.6020638779544,140,CIRCULO DE VILLA DEVOTO,CLUB DE BARRIO,CLUB_DE_BARRIO,UNICA,Pedro Moran  4151,Pedro Moran  4151,,4501-0501,circulo@fibertel.com.ar,,www.circulo-devoto.com.ar,"Fútbol infantil, Fútbol 11 (juveniles), Handball, Patín, Taekwondo, Gimnasia rítmica, Escuela de tenis, Musculación, Gimnasia para damas (aerolocal, localizada y funcional), Indoor, Pilates, Ajedrez, Estimulación deportiva. Actividades culturales.",3 canchas - 1 salon - natatorio,Pedro Moran  ,4151,Villa Devoto,Comuna 11,1419,C1419HLA
-58.4471937229895,-34.5614990875682,142,BELGRANO,CLUB DE BARRIO,CLUB_DE_BARRIO,UNICA,Arribeños 1701,Arribeños 1701,,4784-8180   4787-2680,clubbelgrano@fibertel.com.ar,,www.clubbelgrano.org.ar,"Futbol, gimnasio, bridge, pelota paleta, natación en verano, tenis, paddle, squash.",1 cancha de fútbol papi fútbol,Arribe,1701,Belgrano,Comuna 13,1426,C1426BLK
-58.5148092028741,-34.6129918931247,143,GENERAL LAMADRID,CLUB DE BARRIO,CLUB_DE_BARRIO,UNICA,Desaguadero 3120,Desaguadero 3120,,4567-6239,caglamadrid@caglamadrid.com.ar,Club Atlético General Lamadrid,,"baby, futsal, patin, handbol, voley, fútbol (AFA)",4 canchas - 1 natatorio - 3 salones,Desaguadero ,3120,Villa Devoto,Comuna 11,1417,C1417BST
-58.4316932357615,-34.6296095065212,144,HOMERO MANZI,CLUB DE BARRIO,CLUB_DE_BARRIO,UNICA,Beauchef 1050,Beauchef 1050,,4922-3588,clubhomeromanzi@hotmail.com,,,"fútbol, patin, natacion, fútbol femenino, taekwondo",2 natatorios - 3 canchas,Beauchef ,1050,Parque Chacabuco,Comuna 7,1424,C1424BDV
-58.4193429627035,-34.6307471072299,145,GON,CLUB DE BARRIO,CLUB_DE_BARRIO,CENTRAL,Avda. Pavon 3916/18,Av Pavon 3916,,4921-2364/0853,circulosunidosgon@gmail.com,CIRCULOSUNIDOSGONOFICIAL,www.circulosunidosgonoficial.com.ar,"Baby fútbol, fútbol femenino, futsal, yoga, danzas folklóricas, tango, salsa y merengue, rollers. Actividades culturales.",biblioteca - 2 salones - 1 cancha,Av Pavon ,3916,Boedo,Comuna 5,1253,C1253AAX
-58.4179451807235,-34.6273059776542,146,GON,CLUB DE BARRIO,CLUB_DE_BARRIO,ANEXO DEPORTIVO,Cochabamba 3750,Cochabamba 3750,,4921-2364/0853,circulosunidosgon@gmail.com,CIRCULOSUNIDOSGONOFICIAL,www.circulosunidosgonoficial.com.ar,"Baby fútbol, fútbol femenino, futsal, yoga, danzas folklóricas, tango, salsa y merengue, rollers. Actividades culturales.",biblioteca - 2 salones - 1 cancha,Cochabamba ,3750,Boedo,Comuna 5,1252,C1252ABN
-58.421446702925,-34.6052623171448,147,BOEDO BILLAR CLUB,CLUB DE BARRIO,CLUB_DE_BARRIO,UNICA,Medrano 468,Medrano 468,,4982-6307/6545,boedobillarclub@fibertel.com.ar,,,billar,2 salones,Medrano ,468,Almagro,Comuna 5,1179,C1179AAH
-58.495178619638,-34.5520036130602,148,VILLA CERINI,CLUB DE BARRIO,CLUB_DE_BARRIO,UNICA,Arias 4745,Arias 4745,,4545-5662,,A F C Villa Cerini,,"Baby fútbol, artes marciales, padel, boxeo, folklore, danza arabe, reggaeton.","biblioteca, 2 canchas, 3 salones",Arias ,4745,Saavedra,Comuna 12,1430,C1430CSK
-58.4294921451437,-34.6089126425133,149,ALMAGRO BOXING CLUB,CLUB DE BARRIO,CLUB_DE_BARRIO,UNICA,Diaz Velez 4422,Diaz Velez 4422,,4982-6529 / 4865-1471,almagroboxingclub@gmail.com,Almagro Boxing Club,www.almagroboxingclub.com.ar,Boxeo recreativo. Boxeo competitivo. Gimnasia de Boxeo. Ambos sexos. Todas las edades.,gimnasio,Diaz Velez ,4422,Almagro,Comuna 5,1200,C1200AAY
-58.3967474927865,-34.5988132748652,150,OBRAS SANITARIAS NACION,CLUB,CLUB,ANEXO SOCIAL (SPORTCLUB),Paraguay 2060,Paraguay 2060,,4702-4655/9467,secretariaclub@clubosn.com.ar,Club Obras,www.clubosn.com.ar,"ESCUELAS DEPORTIVAS (basquet, natación, hockey, juegos-efi, ajedrez(SEGUNDO DEPORTE DEL CLUB),taekwondo, fútbol, nado sincronizado, tenis de mesa) - basquet FEDERATIVO, RUGBY, voley (veteranos). Colonia de vacaciones (más info en Tabla Anexo)",canchas de tenis - microestadio - cancha de voley - cancha de basquet - gimnasio - natatorio,Paraguay ,2060,Recoleta,Comuna 2,1121,C1121ABF
-58.4587016064716,-34.5453302222562,151,OBRAS SANITARIAS NACION,CLUB,CLUB,CENTRAL,Av. Libertador 7395,Av. Libertador 7395,,4702-4655/9467,secretariaclub@clubosn.com.ar,Club Obras,www.clubosn.com.ar,"ESCUELAS DEPORTIVAS (basquet, natación, hockey, juegos-efi, ajedrez(SEGUNDO DEPORTE DEL CLUB),taekwondo, fútbol, nado sincronizado, tenis de mesa) - basquet FEDERATIVO, RUGBY, voley (veteranos). Colonia de vacaciones (más info en Tabla Anexo)",canchas de tenis - microestadio - cancha de voley - cancha de basquet - gimnasio - natatorio,Av. Libertador ,7395,Nu\u00f1ez,Comuna 13,1429,C1429BMG
-58.4352711465971,-34.6623219344267,152,JUVENTUD UNIDA DE VILLA SOLDATI,CLUB DE BARRIO,CLUB_DE_BARRIO,UNICA,Av. Intendente Rabanal 2821,Av. Intendente Rabanal 2821,,S/T,,,,"baby, bochas, taekwondo",,Av. Intendente Rabanal ,2821,Villa Soldati,Comuna 8,1437,C1437FQC
-58.3585565035084,-34.6326036770594,153,"CLUB SOCIAL, CULTURAL Y DEPORTIVO BOHEMIOS",CLUB DE BARRIO,CLUB_DE_BARRIO,UNICA,Necochea 948,Necochea 948,,4307-0114,,,,"Baby fútbol, yoga, tango, salsa y merengue. Actividades culturales.",1 cancha - 2 salones,Necochea ,948,Boca,Comuna 4,1158,C1158ACN
-58.4478800386164,-34.6278439702315,154,PORTUGUES,CLUB DE BARRIO,CLUB_DE_BARRIO,CENTRAL (TIENEN ANEXO EN PROVINCIA),Pedro Goyena 1468,Pedro Goyena 1468,,4432-5801,clubportugues@hotmail.com,,,"Acrobacia, tango, yoga, artes marciales, gimnasia.",2 salones,Pedro Goyena ,1468,Caballito,Comuna 6,1406,C1406GWQ
-58.5149200473162,-34.6164910896818,155,LAURELES ARGENTINOS,CLUB DE BARRIO,CLUB_DE_BARRIO,UNICA,Laureles Argentinos 5056,Laureles Argentinos 5056,,4639-4785,laurelesargentinos@hotmail.com    -   laurelesargentinos@live.com.ar,Laureles Argentinos,,"Baby, patin, taekwondo, salsa, merengue y folklore",1 salon y 1 cancha,Laureles Argentinos ,5056,Villa Devoto,Comuna 11,1417,C1417FKB
-58.4925849991971,-34.6062827151373,156,DEPORTIVO PARQUE,CLUB DE BARRIO,CLUB_DE_BARRIO,UNICA,Marcos Sastre 3268,Marcos Sastre 3268,,4501-8730,clubsocialparque@hotmail.com,,,"artes marciales, fútbol 5",Instalaciones en remodelación.,Marcos Sastre ,3268,Villa Del Parque,Comuna 11,1417,C1417FYN
-58.4350862974062,-34.5912012624539,157,VILLA MALCOLM,CLUB DE BARRIO,CLUB_DE_BARRIO,UNICA,Avda. Cordoba 5064/72,Av. Cordoba 5064,,4772-9796,clubvillamalcolm@gmail.com,,www.futbolvillamalcolm.webnode.com.ar,"Voley para niñas, baby fútbol, patín, gimnasia, gimnasia deportiva, clases de rock and roll, taekwondo, aikido, futsal a partir de 14 años , tango.",2 canchas - 2 salones,Av. Cordoba ,5064,Villa Crespo,Comuna 15,1414,C1414BAV
-58.4596740779861,-34.5445604505366,158,CLUB CIUDAD DE BUENOS AIRES,CLUB,CLUB,UNICA,Av. Libertador 7501,Av. Libertador 7501,,4703-0222,comunicacion@clubciudad.org.ar,Club Ciudad de Buenos Aires - Oficial,www.clubciudad.org.ar,"Tenis, golf, padel, natacion, fútbol, hockey, hockey sobre patines, rugby, softbol, voleybol, bochas, pelota-paleta, judo, karate, esgrima, musculacion, tango, folklore, salsa, merengue. Colonia de vacaciones.",canchas de tenis - canchas de paddle - 4 piletas (1 cubierto) - canchas de hockey y hockey sobre patines - canchas de fútbol - canchas de voley - gimnasios - cancha de rugby - cancha de softbol - cancha de bochas - cancha de pelota-paleta,Av. Libertador ,7501,Nu\u00f1ez,Comuna 13,1429,C1429BMI
-58.5017352922596,-34.6610157133609,159,NUEVA CHICAGO,CLUB,CLUB,CENTRAL SEDE SOCIAL,Lisandro de la Torre 2288,Lisandro de la Torre 2288,,4687-2538/1673,,Pileta de Nueva Chicago / Mundo Chicagoo,www.mundochicago.com.ar,"Fútbol, hockey, baby, futsal, fútbol femenino, básquet, voley, patin artístico, gimnasia, artes marciales, natación, arabe, tango, ajedrez. Colonia de vacaciones.","salones, canchas y natatorio climatizado",Lisandro de la Torre ,2288,Mataderos,Comuna 9,1440,C1440ECX
-58.500302443411,-34.6676377567287,160,NUEVA CHICAGO,CLUB,CLUB,ANEXO ESTADIO,Justo Suárez 6900,Justo Suárez 6900,,,,Pileta de Nueva Chicago / Mundo Chicagoo,www.mundochicago.com.ar,"Fútbol, hockey, baby, futsal, fútbol femenino, básquet, voley, patin artístico, gimnasia, artes marciales, natación, arabe, tango, ajedrez. Colonia de vacaciones.","salones, canchas y natatorio climatizado",Justo Suárez ,6900,Mataderos,Comuna 9,1440,C1440BHH
-58.4084729227708,-34.6374364368723,161,ATLETICO HURACAN,CLUB,CLUB,CENTRAL SEDE SOCIAL,Avda. Caseros 3159,Av. Caseros 3159,,4911-9313/4719/6713,,Club Atletico Huracan,www.cahuracan.com,"Taekwondo, voley, patin, basket, futsal, boxeo, gimnasia aerobica y artistica, handbol, hockey (sobre cesped - sobre patines), tango, natacion, fútbol profesional y fútbol amateur. Actividades culturales. Colonia de vacaciones.",,Av. Caseros ,3159,Parque Patricios,Comuna 4,1263,C1263AAA
-58.3971445980168,-34.6432083595077,162,ATLETICO HURACAN,CLUB,CLUB,ANEXO 1 ESTADIO DUCO,Amancio Alcorta 2570,Amancio Alcorta 2570,,4942-1965,,Club Atletico Huracan,www.cahuracan.com,"Taekwondo, voley, patin, basket, futsal, boxeo, gimnasia aerobica y artistica, handbol, hockey (sobre cesped - sobre patines), tango, natacion, fútbol profesional y fútbol amateur. Actividades culturales. Colonia de vacaciones.","Estadio Tomas A. Ducó, Patrimonio Histórico y de Defensa Estructural de la Ciudad de Buenos Aires, en el año 2007 bajo el número de expediente 62.548. Capacidad: 48.314 espectadores. Dimensiones: 105 mts x 70 mts (más info en Tabla Anexo)",Amancio Alcorta ,2570,Parque Patricios,Comuna 4,1437,C1437HTN
-58.4609565502194,-34.6513149255344,163,ATLETICO HURACAN,CLUB,CLUB,ANEXO 2  LA QUEMITA,Mariano Acosta 1981,Mariano Acosta 1981,,4637-6395,,Club Atletico Huracan,www.cahuracan.com,"Taekwondo, voley, patin, basket, futsal, boxeo, gimnasia aerobica y artistica, handbol, hockey (sobre cesped - sobre patines), tango, natacion, fútbol profesional y fútbol amateur. Actividades culturales. Colonia de vacaciones.","La Quemita, 8 canchas de fútbol. Entre otras instalaciones: una cancha de hockey s/ césped, cancha de tenis de cemento, cancha de vóley, dos piletas de natación, mesas, parrillas, quinchos y estacionamiento (150 vehículos) (más info en Tabla Anexo)",Mariano Acosta ,1981,Flores,Comuna 7,1407,C1407KCM
-58.450522039246,-34.6536319107651,164,ASOCIACION ATLETICA ARGENTINOS JUNIORS,CLUB,CLUB,ANEXO COMPLEJO FUTBOLISTICO,Av. Lafuente 2105,Av. Lafuente 2105,,,,AAAJOficial,www.argentinosjuniors.com.ar,FUTBOL. Colonia de vacaciones.,Complejo Futbolístico: Centro de Entrenamiento y Formación del Futbol Amateur. Superficie: 90.000 m2 aproximadamente / Cantidad de canchas: 5 de césped natural / Estacionamiento (300 vehículos) (más info en Tabla Anexo),Av. Lafuente ,2105,Villa Soldati,Comuna 8,1406,C1406EUK
-58.4730278868335,-34.6062768232927,165,ASOCIACION ATLETICA ARGENTINOS JUNIORS,CLUB,CLUB,ANEXO ESTADIO DIEGO ARMANDO MARADONA,Gavilán 2151,Gavilán 2151,,4581-1243,,AAAJOficial,www.argentinosjuniors.com.ar - www.eltemplodelfútbol.com.ar,FUTBOL. Colonia de vacaciones.,Estadio - Museo,Gavilán ,2151,Villa Gral. Mitre,Comuna 11,1416,C1416ACS
-58.4697100588938,-34.5911925254252,166,ASOCIACION ATLETICA ARGENTINOS JUNIORS,CLUB,CLUB,CENTRAL POLIDEPORTIVO LAS MALVINAS,Punta Arenas 1271,Punta Arenas 1271,,4551-6887 / 4552-5603,,AAAJOficial,www.argentinosjuniors.com.ar,"Basquet, hockey sobre patines, patin, voley, handbol, escuela de fútbol, boxeo, taekwondo, yoga, bochas, natacion, gimnasia, judo. Colonia de vacaciones.","Pista de patin, 4 natatorios (2 cubiertos), gimnasio para box, canchas de bochas, canchas de paddle, cancha de handball, cancha de hockey, cancha de basquet, cancha de fútbol.",Punta Arenas ,1271,Paternal,Comuna 15,1427,C1427DQB
-58.3722672158229,-34.6026968391457,167,ASOCIACION CRISTIANA DE JOVENES DE LA REPUBLICA ARGENTINA,CLUB,CLUB,CENTRAL,Reconquista 439,Reconquista 439,,4311-4785,ymca@ymca.org.ar,YMCA Argentina,www.ymca.org.ar,"Natacion, fútbol, voley, basquet, cursos de buceo, gimnasia, curso de guardavida, pesas, folklore, tango, golf en microcentro, escalada en roca. Colonia de vacaciones.",3 gimnasios - 2 natatorios - 2 canchas - 3 salones,Reconquista ,439,San Nicolas,Comuna 1,1003,C1003ABI
-58.4464901990002,-34.656276081533,168,ASOCIACION CRISTIANA DE JOVENES DE LA REPUBLICA ARGENTINA,CLUB,CLUB,ANEXO SEDE PARQUE,Av. Lafuente 2480,Av. Lafuente 2480,,4918-3244,ymca@ymca.org.ar,YMCA Argentina,www.ymca.org.ar,"Fútbol, Básquet, Voley, Gimasio, Natación, Pista aeróbica, Aikido, Buceo, Escalada, Karate, Kendo, Plat. vibratoria, Rehab.cardiovascular, TaiChiChuan, Bicicleta, Pilates, Kick Boxing, Muay Thai. Colonia vacaciones (más info en Tabla Anexo)",3 gimnasios - 2 natatorios - 2 canchas - 3 salones,Av. Lafuente ,2480,Villa Soldati,Comuna 8,1437,C1437BUO
-58.3639766939826,-34.6253144697444,169,DARLING,CLUB DE BARRIO,CLUB_DE_BARRIO,UNICA,Brasil 50,Brasil 50,,4362-3818,info@darlingtennisclub.com.ar,Darling Tennis Club,www.darlingtennisclub.com.ar,tenis - natacion - gimnasio,13 canchas de tenis - Natatorio,Brasil ,50,Boca,Comuna 4,1063,C1063AAB
-58.4774333053061,-34.5614864893385,170,EL TABANO,CLUB DE BARRIO,CLUB_DE_BARRIO,UNICA,Romulo Naon 3029,Romulo Naon 3029,,4544-6193,,"Club social y deportivo El Tabano""""",www.clubeltabano.com.ar,"Gimnasia, Ajedrez, Acrobacia, Danza, Gimnasia Artística y Rítmica, Salsa, Tango, Ritmos Latinos, Árabe, Hip Hop, Reggeaton.",,Romulo Naon ,3029,Coghlan,Comuna 12,1430,C1430EQG
-58.5208839998575,-34.6004533669408,171,FENIX CLUB,CLUB DE BARRIO,CLUB_DE_BARRIO,UNICA,Vallejos 4516,Vallejos 4516,,4501-5945,clubfenixdevoto@hotmail.com,FENIX DEVOTO,www.tenisdemesa.fenixdevoto.com.ar,"Fútbol recreativo y competitivo infantil (hasta 14). Danza Jazz y Clásico y Ritmos latinos (todas edades), Taekwondo, Boxeo adolescentes y adultos, Kung Fu y Tai Chi (adultos) y Tenis de mesa (todas edades). Activ. Culturales (más info en Tabla Anexo)","sum de 6x4, solar que se usa como cancha de fútbol y basquet, cancha de bochas, dos SUM mas.",Vallejos ,4516,Villa Devoto,Comuna 11,1419,C1419GLL
-58.5097563272643,-34.6649221713586,172,EXPRESO DE BARILOCHE,CLUB DE BARRIO,CLUB_DE_BARRIO,UNICA,Jose Leon Suarez 2472/76,Jose Leon Suarez 2472,,S/T,,,,,Cancha de Futbol - Cancha de Bochas - Pista para Automodelismo - Buffet,Jose Leon Suarez ,2472,Mataderos,Comuna 9,1440,C1440EYT
-58.4653596577093,-34.6471550629349,173,MARIANO ACOSTA,CLUB DE BARRIO,CLUB_DE_BARRIO,UNICA,Mariano Acosta 1544,Mariano Acosta 1544,,4612-4412,sfmacosta@yahoo.com.ar,,,"Patín, ajedrez, tango, danzas árabes, gimnasia femenina, baby fútbol, Kick Boking, Taekwondo, peñas de tango y folklore. Actividades culturales.

",1 cancha - 1 salon de usos múltiples en el primer piso - Gimnasio cubierto (de 18 metros por 2S metros) para variadas disciplinas. Buffet - Baño para personas con movilidad reducida (en la planta baja).,Mariano Acosta ,1544,Parque Avellaneda,Comuna 9,1407,C1407KCF
-58.4300112489759,-34.6599238523044,174,DOMINGO FAUSTINO SARMIENTO,CLUB DE BARRIO,CLUB_DE_BARRIO,UNICA,Av. Intendente Francisco Rabanal 2375,Av. Francisco Rabanal 2375,,4919-3104,,,,baby fútbol - futsal - patin - gimnasia ritmica - judo - taebo - danzas arabes - bochas (web) - billar - juegos de salon - auriculoterapia - fiestas danzantes,2 canchas - 1 salon - biblioteca,Av. Francisco Rabanal ,2375,Villa Soldati,Comuna 8,1437,C1437FPK
-58.4347173025383,-34.5623730084618,176,LAWN TENNIS,CLUB,CLUB,UNICA,Olleros 1510,Olleros 1510,,4772-0183,secretaria@baltc.net,"Buenos Aires Lawn Tennis Club
Organización sin fines de lucro",www.baltc.net,"Fútbol, natación, tenis, gimnasio, escuela de tenis, bridge, escuela argentina de árbitros de tenis.",1 gimnasio-3 salones-1 natatorio-1 cancha de fútbol para 7 jugadores - 20 canchas de tenis incluyendo estadio central con capacidad para 4800 espectadores - estacionamiento.,Olleros ,1510,Palermo,Comuna 14,1426,C1426CRB
-58.4150685357695,-34.6270298457084,177,CIRCULO MARTIN FIERRO,CLUB DE BARRIO,CLUB_DE_BARRIO,UNICA,Cochabamba 3536,Cochabamba 3536,,4932-7362,,circulo martin fierro (grupo publico),,"baby, futsal, voley, handbol",1 cancha de fútbol 24x17m,Cochabamba ,3536,Boedo,Comuna 5,1252,C1252ABJ
-58.479713254857,-34.5492816205471,178,AGRUPACION SAN JORGE,CLUB,CLUB,UNICA,VILELA 3340,VILELA 3340,,4542-0585,,,,"Escuela de fútbol infantil en cancha de césped, escuela de fútbol femenino, fútbol femenino en cancha de césped, boxeo recreativo mixto, aeróbica mixta, gimnasio de musculación. Actividades culturales.",2 canchas de cesped y tierra  - cancha polideportiva de cemento - natatorio descubierto - solarium recreativo - parrillas  - SUM,VILELA ,3340,Saavedra,Comuna 12,1429,C1429DCD
-58.5194205985287,-34.6338537309136,179,CLUB ATLETICO VELEZ SARSFIELD,CLUB,CLUB,CENTRAL - SEDE Y  ESTADIO JOSE AMALFITANI,Av. Juan B. Justo 9200,Av. Juan B. Justo 9200,,4641-5663/5763/4014,velezsocios@velezsarsfield.com.ar,Club Atlético Vélez Sarsfield,www.velezsarsfield.com.ar,"Fútbol, Voley, Básquet, Ajedrez, Yoga, Atletismo, Béisbol, Bochas, Cestoball, Gim. Acrobática, Artística, Aeróbica, Hockey Césped y Patines, Judo, Karate, Kung Fu, Levant. Olímpico, Natación, Paddle, Patín Art. y Carrera (más info en Tabla Anexo)",ESTADIO AMALFITANI: capacidad 49.540 esp. Gim. de 35 x 15m. Pileta Invierno. Pileta olímpica (50 x 25m) y pileta de 25x16m. Estadio básquet Víctor Barba: 28 x 15m cap 1000 esp. sentados y 500 parados. Playón Polifuncional (más info en Tabla Anexo),Av. Juan B. Justo ,9200,Liniers,Comuna 9,1408,C1408AKU
-58.5139326432426,-34.6336468250052,180,CLUB ATLETICO VELEZ SARSFIELD,CLUB,CLUB,ANEXO POLIDEPORTIVO,Av. Juan B. Justo 8900,Av. Juan B. Justo 8900,,4641-5663/5763/4014,velezsocios@velezsarsfield.com.ar,Club Atlético Vélez Sarsfield,www.velezsarsfield.com.ar,"Fútbol, Voley, Básquet, Ajedrez, Yoga, Atletismo, Béisbol, Bochas, Cestoball, Gim. Acrobática, Artística, Aeróbica, Hockey Césped y Patines, Judo, Karate, Kung Fu, Levant. Olímpico, Natación, Paddle, Patín Art. y Carrera (más info en Tabla Anexo)",COMPLEJO ACUÁTICO DE VÉLEZ SARSFIELD: dos natatorios (uno semi olímpico) Tercer natatorio para niños. También un natatorio. POLIDEPORTIVO: Canchas de fútbol. Canchas de tenis. Estadio de vóley. Cancha de Hockey (más info en Tabla Anexo),Av. Juan B. Justo ,8900,Versalles,Comuna 10,1408,C1408AKR
-58.395591750365,-34.652129969914,181,CACHO LABORDE,CLUB DE BARRIO,CLUB_DE_BARRIO,UNICA,Luna 1547,Luna 1547,,,,,,"Futbol infantil y juvenil de 4 a 14 años, fútbol para adultos. Actividades culturales.",Cancha de fútbol 11 - SUM,Luna ,1547,Barracas,Comuna 4,1437,C1437FFI
-58.4240045928561,-34.5924401618088,183,ASOCIACION ARGENTINA DE SORDOMUDOS,CLUB DE BARRIO,CLUB_DE_BARRIO,UNICA,JULIAN ALVAREZ 1544/46,Julian Alvarez 1544,,S/T,club.aso@gmail.com,aso1973,www.aso.org.ar,Voley masculino y femenino - fútbol de 11 masculino - futsal masculino y femenino - basquet masculino - bowling masculino y femenino - pesca deportiva,1 salon  - 1 sala de reuniones - 1 patio descubierto,Julian Alvarez ,1544,Palermo,Comuna 14,1414,C1414DSF
-58.4415366000091,-34.6639332387803,184,ELEVACION,CLUB DE BARRIO,CLUB_DE_BARRIO,UNICA,Corrales 3236,Corrales 3236,,,,,,"Ajedrez jovenes y adultos, billar jovenes y adultos,  juegos de salon niños jovenes y adultos,  gimnasia niños y jovenes, adultos y adultos mayores. Yoga jovenes, adultos y adultos mayores . Tango. Actividades culturales.",SALONES - ESCENARIO,Corrales ,3236,Villa Soldati,Comuna 8,1437,C1437GNH
-58.3790110887791,-34.6172136680191,186,ASOCIACION CIVIL OLIMPIA FUTBOL CLUB DE LA CIUDAD DE BUENOS AIRES,CLUB DE BARRIO,CLUB_DE_BARRIO,,Tacuari 773,Tacuari 773,,4307-163,,,,,,Tacuari ,773,Monserrat,Comuna 1,1071,C1071AAO
-58.4243442489823,-34.6360634699143,187,CLUB ATLETICO SAN LORENZO DE ALMAGRO,CLUB,CLUB,SEDE BOEDO,Av. La Plata 1782,Av. La Plata 1782,,4016-2600,infolaplata@sanlorenzo.com.ar,San Lorenzo Equipo deportivo,www.sanlorenzo.com.ar,"Natación, Artes Marciales, Streching, Yoga y gimnasia",natatorio climatizado - gimnasio,Av. La Plata ,1782,Boedo,Comuna 5,1250,C1250AAU
-58.4345980625639,-34.6523768244946,188,CLUB ATLETICO SAN LORENZO DE ALMAGRO,CLUB,CLUB,SEDE CIUDAD DEPORTIVA,Av. F. F. de la Cruz 2145,Av. F. F. de la Cruz 2145,,4918-8192,infociudad@sanlorenzo.com.ar,San Lorenzo Equipo deportivo,www.sanlorenzo.com.ar,"tenis, patin, natacion, voley (masculino y femenino), hockey sobre cesped, hockey sobre patines, basquet, futsal, fútbol femenino, fútbol recreativo, bowling, rugby",Quinchos y parrillas -Tres grandes natatorios (uno climatizado) -Cancha de fútbol profesional -6 canchas fútbol amateur -cancha hockey s/ patines -cancha hockey s/ césped - cancha de handball - cancha de tenis -  restaurante (más info en Tabla Anexo),Av. F. F. de la Cruz ,2145,Flores,Comuna 7,1437,C1437GZA
-58.38586427647,-34.6091773863617,189,CLUB ATLETICO SAN LORENZO DE ALMAGRO,CLUB,CLUB,ANEXO ADMINISTRATIVO,Avda. Mayo 1373,Av. Mayo 1373,,4016-2600,socios@sanlorenzo.com.ar,San Lorenzo Equipo deportivo,www.sanlorenzo.com.ar,Departamentos de Atención al Socio y Prensa. Venta de entradas.,Venta de merchandising,Av. Mayo ,1373,Monserrat,Comuna 1,1085,C1085ABD
-58.3935616514889,-34.6262823669515,192,"ASOCIACION CIVIL SARANDI SOCIAL, CULTURAL Y DEPORTIVA",CLUB DE BARRIO,CLUB_DE_BARRIO,,Sarandi 1477,Sarandi 1477,,4308-0822,,,,"fútbol, voley, handbol, basquet",1 cancha,Sarandi ,1477,San Cristobal,Comuna 3,1251,C1251ADE
-58.4097402096262,-34.6005537084437,193,ORGANIZACION HEBREA ARGENTINA MACABI,CLUB,CLUB,,Tucuman 3135,Tucuman 3135,,4963-8783,secretaria.general@macabi.com.ar,,,"voley, basquet, patin, handbol, natacion, otros",,Tucuman ,3135,Balvanera,Comuna 3,1189,C1189AAI
-58.3964318841756,-34.6471387694303,194,ASOCIACION CLUB ATLETICO BARRACAS CENTRAL,CLUB,CLUB,,Luna 1211,Luna 1211,,4301-5855,info@barracascentral.com,,,"patin, voley, handbol, gimnasia deportiva, fútbol",cancha - salones - gimnasio,Luna ,1211,Barracas,Comuna 4,1437,C1437FFC
-58.3657018006079,-34.6270802577231,195,CATALINAS SUR ASOCIACION,CLUB,CLUB,,Pi y Margal 671,Pi y Margal 671,,4300-5159,,,,"futsal, padel, natacion","2 natatorios, 3 canchas y 2 salones",Pi y Margal ,671,Boca,Comuna 4,1155,C1155AHA
-58.3648653228844,-34.6365220029403,196,CLUB ATLETICO BOCA JUNIORS,CLUB,CLUB,,Brandsen 805,Brandsen 805,,4309-4700,cas@bocajuniors.com.ar,,www.bocajuniors.com.ar,"Boxeo, Balon, Bochas, basquet, voley, Futsal, gimnasia, pesas, judo, taekwondo, karate, lucha, atletismo, fútbol femenino
",,Brandsen ,805,Boca,Comuna 4,1161,C1161AAQ
-58.3765329292339,-34.6490273188365,197,CLUB SPORTIVO BARRACAS BOLIVAR,CLUB DE BARRIO,CLUB_DE_BARRIO,,Iriarte 2056,Iriarte 2056,,4302-8536 / 8576,prensa@sportivobarracas.com.ar,FACEBOOK.COM/SBARRACAS,www.sportivobarracas.com.ar,"futsal, patin, gimnasia deportiva, taekwondo, danzas arabes, natacion",2 canchas - 3 salones - natatorio,Iriarte ,2056,Barracas,Comuna 4,1291,C1291ABP
-58.3854872150681,-34.6478960599444,198,CLUB SPORTIVO PEREYRA,CLUB DE BARRIO,CLUB_DE_BARRIO,,Alvarado 2785,Alvarado 2785,,4301-9133,,,,"baby, gimnasia deportiva",1 cancha - 2 salones,Alvarado ,2785,Barracas,Comuna 4,1290,C1290AAQ
-58.3939069581638,-34.6516225347052,200,JUVENTUD UNIDA,CLUB DE BARRIO,CLUB_DE_BARRIO,,Iriarte 3276,Iriarte 3276,,4301-2541,,,,"artes marciales, gimnasia, handbol, futsal",1 gimnasio,Iriarte ,3276,Barracas,Comuna 4,1291,C1291ACV
-58.3996982620221,-34.6315054123431,201,CLUB ARTIGUENSES,CLUB DE BARRIO,CLUB_DE_BARRIO,,Brasil 2546,Brasil 2546,,4308-0050,,,,"baby, futsal",1 cancha,Brasil ,2546,Parque Patricios,Comuna 4,1260,C1260AAU
-58.4286717453443,-34.6553940756379,202,CRESPO JUNIORS,CLUB DE BARRIO,CLUB_DE_BARRIO,,Tabare 1931,Tabare 1931,,4919-5985,,,,baby fútbol,"2 canchas de 100x70, que las alquilan - 2 canchas de baby para campeonatos de baby y FEFI - 1 salon - 1 quincho y 1 buffet",Tabare ,1931,Nueva Pompeya,Comuna 4,1437,C1437FHS
-58.4099283497777,-34.6562846855013,203,CLUB RIACHUELO JUNIORS,CLUB DE BARRIO,CLUB_DE_BARRIO,,Alberto Einstein 1022,Alberto Einstein 1022,,4943-6158,,,,"fútbol infantil, escuela de fútbol y voley, karate, aerobox y patín",1 buffet - salón para eventos - 1 cancha de baby,Alberto Einstein ,1022,Nueva Pompeya,Comuna 4,1437,C1437DXP
-58.417726777716,-34.6164754639223,204,AGRUPACION SUBATLÁNTICA DE EXPEDICIONES SUBMARINAS JULES ROSSI,CLUB DE BARRIO,CLUB_DE_BARRIO,,Quito 3657,Quito 3657,,4931-6746,"info@ases.org.ar - asesbuceo@fibertel.com.ar
",ASES Escuela de Buceo Organización sin fines de lucro,,buceo deportivo,Natatorio -  Cámara Hiperbárica,Quito ,3657,Almagro,Comuna 5,1212,C1212ABA
-58.4243749694282,-34.6289573995635,205,ASOCIACION CIVIL Y DEPORTIVA EL BARRIO,CLUB DE BARRIO,CLUB_DE_BARRIO,,Constitucion 4253,Constitucion 4253,,4924-9291,,,,"baby, patin, voley, karate, murga, handbol",1 cancha - 1 salon,Constitucion ,4253,Boedo,Comuna 5,1254,C1254ABW
-58.4242228507046,-34.5980172576993,207,CLUB NAUTICO HACOAJ,CLUB,CLUB,"SEDE CAPITAL, TIENE OTRAS TRES SEDES EN PROVINCIA",Av. Estado de Israel 4156,Av. Estado de Israel 4156,,4863-2121,hacoaj@hacoaj.org.ar,Club Náutico Hacoaj - Sitio Oficial Organización sin fines de lucro,www.hacoaj.org.ar,"Fútbol 5, voley, gimnasia, gimnasia deportiva, handbol, patin, otros.",2 gimnasios cubiertos dobles - 1 gimnasio de entrenamiento - 1 gimnasio de capacitación - 2 salones de usos múltiples - Confitería - Tatami de judo - Aulas - Salones de reunión - Oficinas administrativas y de gestión,Av. Estado de Israel ,4156,Almagro,Comuna 5,1185,C1185AAN
-58.4213499363396,-34.6044698390765,208,ALMAGRO ASOCIACION CIVIL,CLUB,CLUB,"SEDE CENTRAL, TAMBIEN TIENE ANEXO EN PROVINCIA",Medrano 522,Medrano 522,,5408-0053,info@clubalmagro.com.ar,Almagro  Equipo deportivo,www.clubalmagro.com.ar,"Baby, patín, básquet, voley, artes marciales, gimnasia con aparatos, natación.","1 cancha futsal - 3 salones - Natatorio - tambien Estadio 3 de febrero  situado en la localidad argentina de José Ingenieros, en el Partido de Tres de Febrero, en la Provincia de Buenos Aires",Medrano ,522,Almagro,Comuna 5,1179,C1179AAJ
-58.4457126281972,-34.6178922380244,209,CLUB FERROCARRIL OESTE,CLUB,CLUB,,F. Garcia Lorca 350,Federico Garcia Lorca 350,,4431-8282,informesocios@ferrocarriloeste.org.ar  -  ferrocar@fibertel.com.ar,Club Ferro Carril Oeste - Oficial,www.ferrocarriloeste.org.ar,"fútbol, voley, basquet, gimnasia, natacion, tenis, tenis de mesa, handbol, taekwondo, judo, folklore, hockey, ajedrez, beisbol, judo, gimnasia deportiva",7 gimnasios - cancha de beisbol - 2 natatorios - 10 canchas de tenis - salon de taekwondo - salon de ajedrez,Federico Garcia Lorca ,350,Caballito,Comuna 6,1405,C1405AHD
-58.4515834854539,-34.6187564836088,210,CLUB SOCIAL Y DEPORTIVO UNION MARCHIGIANA,CLUB DE BARRIO,CLUB_DE_BARRIO,,Nicasio Oroño 457,Nicasio Oroño 457,,4431-4800,,,,"tenis de mesa, taekwondo, karate, aikido, baby, patin artistico, gimnasia deportiva",1cancha - 1 salon,Nicasio Oro,457,Caballito,Comuna 6,1405,C1405AQA
-58.4299285932447,-34.6290050309149,211,ASOCIACION ATLETICO PRIMERA JUNTA,CLUB DE BARRIO,CLUB_DE_BARRIO,,Zuviria 250,Zuviria 250,,4922-1796,,,,"baby, futsal, fútbol femenino, murga",1 cancha - 1 salon,Zuviria ,250,Parque Chacabuco,Comuna 7,1424,C1424CKF
-58.436768335985,-34.6442001738451,212,ASOCIACION CIVIL CLUB SOCIAL Y CULTURAL MIRAFLORES,CLUB DE BARRIO,CLUB_DE_BARRIO,,Somellera 1770,Somellera 1770,,4382-5931,,,,"baby, futsal, patin, natacion, tenis",1 salon - 1 cancha - cancha de tenis,Somellera ,1770,Parque Chacabuco,Comuna 7,1406,C1406IOB
-58.4603476633187,-34.6217676503784,213,CLUB ATLETICO INDEPENDIENTE,CLUB,CLUB,SEDE CAPITAL Y OTRAS EN PROVINCIA,Boyaca  470,Boyaca  470,,4633-5499 / 4633-7527,boyaca@clubaindependiente.com,Club Atlético Independiente Equipo deportivo,www.clubaindependiente.com,"Futsal, baby, taekwondo, danzas.",Dos vestuarios y un baño para discapacitados - buffet con patio de comidas - dos canchas de Fútbol 5 para la Escuela de Fútbol.,Boyaca  ,470,Flores,Comuna 7,1406,C1406BHH
-58.4589346977303,-34.6448823998339,214,CLUB SOCIAL Y DEPORTIVO GENERAL PUEYRREDON,CLUB DE BARRIO,CLUB_DE_BARRIO,,Zuviria 2921,Zuviria 2921,,S/T,,,,"baby, pesas, yoga, basquet",1 cancha - 1 salon,Zuviria ,2921,Flores,Comuna 7,1406,C1406HSY
-58.4744631493112,-34.6630095404724,215,CLUB SOCIAL Y DEPORTIVO NUEVA ESTRELLA,CLUB DE BARRIO,CLUB_DE_BARRIO,,Santander 4601,Santander 4601,,4602-6731,clubnuevaestrella@yahoo.com.ar  -  nuevaestrella@yahoo.com.ar,,,"baby, futsal",2 canchas - 1 salon,Santander ,4601,Villa Lugano,Comuna 8,1439,C1439ASC
-58.4703395765043,-34.6710305788229,217,LOMAS DE LUGANO SOCIAL CLUB,CLUB DE BARRIO,CLUB_DE_BARRIO,,Albariño 3619,Albariño 3619,,4638-9859,,,,"tango, coro, baby, artes marciales",2 salones - 1 cancha,Albari,3619,Villa Lugano,Comuna 8,1439,C1439ETW
-58.4794330774394,-34.6743903143324,218,LUGANO TENNIS CLUB,CLUB,CLUB,,Murguiondo 3915,Murguiondo 3915,,4602-2019,luganotennisclub@hotmail.com,,,"baby, patin, handbol, taekwondo, karate, teatro,",4 canchas (1 de pelota-paleta) - 2 salones - 1 natatorio,Murguiondo ,3915,Villa Lugano,Comuna 8,1439,C1439FQU
-58.4515422326961,-34.6638272962613,219,SACACHISPAS FUTBOL CLUB,CLUB,CLUB,,Barros Pazos 3702,Barros Pazos 3702,,4919-1152,,,,"baby, fútbol 11",7 canchas de fútbol - 1 salon - 2 natatorios,Barros Pazos ,3702,Villa Soldati,Comuna 8,1439,C1439CIB
-58.4680928430794,-34.655391957098,220,Club Deportivo Español,CLUB,CLUB,SEDE ADMINISTRATIVA,Crisostomo Alvarez 3932,Crisostomo Alvarez 3932,,4637-6903,clubespañol@speedy.com.ar,,,"baby, futsal, patin, voley, artes marciales, danza, otros. Actividades culturales.",,Crisostomo Alvarez ,3932,Parque Avellaneda,Comuna 9,1407,C1407HXN
-58.4947646950744,-34.6484991417913,222,ASOCIACION DE FOMENTO CORVALAN Y BIBLIOTECA POPULAR EMILIO CASTRO ANEXO ALFONSINA STORNI,CLUB DE BARRIO,CLUB_DE_BARRIO,,Tapalque 5147,Tapalque 5147,,4635-4218,clubcorvalan@yahoo.com.ar  -  deportecorvalan@hotmail.com,,,"baby, patin, artes marciales",1 cancha - 1 gimnasio - 1 salon,Tapalque ,5147,Mataderos,Comuna 9,1440,C1440AEE
-58.5001783056425,-34.6696121645853,223,ASOCIACION DE FOMENTO EDILICIA Y CULTURAL CORONEL CARDENAS,CLUB,CLUB,,Cardenas 2910,Cardenas 2910,,4686-3465,,,,"baby, fútbol femenino, fútbol, patin, danza, tango, folklore, danzas arabes",2 natatorios - 1 cancha - 3 salones,Cardenas ,2910,Mataderos,Comuna 9,1440,C1440EJV
-58.5060188361339,-34.6670991899038,224,BIBLIOTECA Y ASOCIACION VECINAL DE FOMENTO NUEVA CHICAGO,CLUB DE BARRIO,CLUB_DE_BARRIO,,Av. De Los Corrales 7201,Av. De Los Corrales 7201,,4686-6151,,,,"baby, patin, gimnasia, danza, otros","1 cancha, 1 salon",Av. De Los Corrales ,7201,Mataderos,Comuna 9,1440,C1440BBI
-58.509814792395,-34.6480284916039,225,CLUB SOCIAL Y CULTURAL GENERAL SAN MARTIN,CLUB DE BARRIO,CLUB_DE_BARRIO,,Oliden  956,Oliden  956,,4644-4367,,,,"Baby fútbol, artes marciales, gimnasia artistica, gimnasia femenina. Actividades Culturales.",1 cancha - 2 salones,Oliden  ,956,Liniers,Comuna 9,1408,C1408HCT
-58.4776368604877,-34.6411047446681,226,CLUB SOCIAL Y DEPORTIVO FLORESTA JUNIORS,CLUB DE BARRIO,CLUB_DE_BARRIO,,Laguna 734,Laguna 734,,4671-9701,florestajuniors@gmail.com,,,"artes marciales, yoga, ajedrez, baby, patin, danza",2 salones - biblioteca,Laguna ,734,Parque Avellaneda,Comuna 9,1407,C1407JVJ
-58.4994831003119,-34.6570642030031,228,CLUB SOCIAL Y DEPORTIVO SOL DE MAYO,CLUB DE BARRIO,CLUB_DE_BARRIO,,Oliden 1947,Oliden 1947,,4687-1584,,,,"baby fútbol, artes marciales",1 cancha - 3 salones,Oliden ,1947,Mataderos,Comuna 9,1440,C1440CQM
-58.4878667706637,-34.6547940269853,229,CLUB SOCIAL Y DEPORTIVO SOL DEL PLATA ANEXO BIBLIOTECA BARTOLOME MITRE,CLUB DE BARRIO,CLUB_DE_BARRIO,,Araujo 1879,Araujo 1879,,,,,,baby,1 cancha - 1salon,Araujo ,1879,Mataderos,Comuna 9,1440,C1440DMA
-58.513892006414,-34.6557274245575,230,25 DE MAYO 1810,CLUB DE BARRIO,CLUB_DE_BARRIO,,Cosquin 1651,Cosquin 1651,,4687-5179,,,,,,Cosquin ,1651,Mataderos,Comuna 9,1440,C1440ELE
-58.4878362269922,-34.6472239111458,231,CLUB DEPORTIVO ALBERDI,CLUB DE BARRIO,CLUB_DE_BARRIO,,White 1041,White 1041,,4682-9737,,,,,,White ,1041,Parque Avellaneda,Comuna 9,1407,C1407IIU
-58.4956715701373,-34.6207729394452,232,ASOCIACION CLUB ATLETICO IGUAZU,CLUB DE BARRIO,CLUB_DE_BARRIO,,San Blas 4225,San Blas 4225,,4639-5969,,,,baby (se realiza en el polideportivo Pomar),1 salon.,San Blas ,4225,Floresta,Comuna 10,1407,C1407FTS
-58.479294607448,-34.6282181516721,233,CIRCULO SOCIAL HEBREO ARGENTINO,CLUB,CLUB,,Avellaneda 3545,Avellaneda 3545,,4671-5234,informes@csha.org.ar,CSHA Una Pasión,www.csha.org.ar,"Baby, futsal, basquet, patin, voley, artes marciales. Actividades culturales.",2 canchas - 1 salon,Avellaneda ,3545,Floresta,Comuna 10,1407,C1407EJC
-58.498414689682,-34.6169838113889,234,CLUB ATLETICO ALL BOYS,CLUB,CLUB,SEDE SOCIAL,Mercedes 1950,Mercedes 1950,,4639-8688,info@caallboys.com.ar,caallboys Equipo deportivo,www.caallboys.com.ar,"baby fútbol, futsal, basquet, patin, voley, gimnasia deportiva, boxeo, full contact. Actividades culturales.",2 canchas - salones,Mercedes ,1950,Monte Castro,Comuna 10,1407,C1407AIL
-58.4986794656784,-34.6162545888516,235,CLUB ATLETICO ALL BOYS,CLUB,CLUB,ESTADIO ISLAS MALVINAS,Alvarez Jonte 4180,Alvarez Jonte 4180,,4639-8688,info@caallboys.com.ar,caallboys Equipo deportivo,www.caallboys.com.ar,"baby fútbol, futsal, basquet, patin, voley, gimnasia deportiva, boxeo, full contact. Actividades culturales.",,Alvarez Jonte ,4180,Monte Castro,Comuna 10,1407,C1407GOV
-58.4971748453477,-34.6159916978677,236,CLUB ATLETICO ALL BOYS,CLUB,CLUB,CAMPO DE DEPORTES,Chivilcoy 1951,Chivilcoy 1951,,4639-8688,info@caallboys.com.ar,caallboys Equipo deportivo,www.caallboys.com.ar,"baby fútbol, futsal, basquet, patin, voley, gimnasia deportiva, boxeo, full contact. Actividades culturales.",,Chivilcoy ,1951,Monte Castro,Comuna 10,1407,C1407AFK
-58.5127550774403,-34.61720423379,238,CLUB SOCIAL Y DEPORTIVO JUVENTUD DE DEVOTO,CLUB DE BARRIO,CLUB_DE_BARRIO,,Bermudez 2366,Bermudez 2366,,4566-5212,clubjuventud@ubbi.com,,,"baby, patin, gimnasia deportiva, artes marciales, salsa, ajedrez","biblioteca, 2 canchas, 2 salones",Bermudez ,2366,Monte Castro,Comuna 10,1417,C1417BWJ
-58.5273515697262,-34.6307649403797,239,"CLUB LINIERS NORTE SOCIAL, CULTURAL Y DEPORTIVO",CLUB DE BARRIO,CLUB_DE_BARRIO,,Gana 687,Gana 687,,4641-6138,,,,"Gimnasia, Artes Marciales, pesca. Actividades culturales.",2 Salones,Gana ,687,Versalles,Comuna 10,1408,C1408BNK
-58.5235125240463,-34.6330122630488,240,CLUB SOCIAL Y CULTURAL EL LUCHADOR,CLUB DE BARRIO,CLUB_DE_BARRIO,,Viena 6508,Viena 6508,,4644-3353,,,,"taekwondo, tango, salsa y merengue, folklore, danza arabe.",1 cancha - 1 salon,Viena ,6508,Versalles,Comuna 10,1408,C1408AND
-58.4825191526688,-34.6369298146418,241,CIRCULO RECREATIVO LA TREVISANA ASOCIACION DE RECREACION Y CULTURA,CLUB DE BARRIO,CLUB_DE_BARRIO,,Benedetti 195,Benedetti 195,,4601-3211,,,,"gimnasia, gimnasia deportiva, bochas",1 salon - cancha de bochas,Benedetti ,195,Velez Sarsfield,Comuna 10,1407,C1407JUC
-58.4951508125014,-34.6396015767117,242,CIRCULO  SOCIAL VALLE  MIÑOR,CLUB DE BARRIO,CLUB_DE_BARRIO,,Rafaela 4840,Rafaela 4840,,4683-3693,valminior@yahoo.com.ar,CIRCULO SOCIAL VALLE MIÑOR grupo publico,www.valminior.com.ar,"Bolos celtas, tai chi, biodanza, danzas gallegas, flamenco. Actividades culturales.",,Rafaela ,4840,Villa Luro,Comuna 10,1407,C1407GVB
-58.4969046528969,-34.6410990452267,243,CLUB SOCIAL Y DEPORTIVO LEOPARDI,CLUB DE BARRIO,CLUB_DE_BARRIO,,Cajaravilla 4980,Cajaravilla 4980,,4635-2629,,,,"baby fútbol, boxeo,",1 cancha - 2 salones,Cajaravilla ,4980,Villa Luro,Comuna 10,1407,C1407GWR
-58.4755576917468,-34.6093550730099,244,CLUB ARGENTINO DE CAZA Y PESCA,CLUB DE BARRIO,CLUB_DE_BARRIO,,Gral. Artigas 1925,Gral. Artigas 1925,,S/T,,,,caza y pesca,,Gral. Artigas ,1925,Villa Gral. Mitre,Comuna 11,1416,C1416AKS
-58.4918632623144,-34.6054218126632,245,CLUB ATLETICO BERNASCONI,CLUB DE BARRIO,CLUB_DE_BARRIO,,Marcos Sastre 3195,Marcos Sastre 3195,,4501-6462,,,,,,Marcos Sastre ,3195,Villa Del Parque,Comuna 11,1417,C1417FYK
-58.5201898866446,-34.6022647957642,246,CIRCULO CATOLICO DE OBREROS DE VILLA DEVOTO,CLUB DE BARRIO,CLUB_DE_BARRIO,,Habana 4568,Habana 4568,,4501-3839,,,,"Baby fútbol, Gimnasia, Artes Marciales, Tenis","Canchas, 2 Salones, 2 Natatorios (uno para niños) climatizados",Habana ,4568,Villa Devoto,Comuna 11,1419,C1419GRR
-58.5232184353585,-34.6126126801201,247,CLUB ATLETICO ESTUDIANTES,CLUB,CLUB,"SECRETARÍA - ESTADIO EN CASEROS, PVCIA BS AS",Av. Beiro  5175,Av. Beiro  5175,,4568-5510,caestudiantes@yahoo.com.ar,,www.caestudiantes.com.ar,"Fútbol, fútbol femenino, handball, patín, taekwondo, karate do",gimnasio,Av. Beiro  ,5175,Villa Devoto,Comuna 11,1419,C1419IAA
-58.5144369955171,-34.5987528955466,248,CLUB GIMNASIA Y ESGRIMA VILLA DEVOTO,CLUB DE BARRIO,CLUB_DE_BARRIO,,Mercedes 4280,Mercedes 4280,,4501-0218,,,,"baby, basket, patin, voley, gimnasia deportiva, artes marciales, teatro, coro, esgrima",gimasio - cancha de paddle - 2 salones,Mercedes ,4280,Villa Devoto,Comuna 11,1419,C1419BGN
-58.5074849132254,-34.6086529682889,249,"CLUB SOCIAL CULTURAL, DEPORTIVO Y BIBLIOTECA PEDRO LOZANO",CLUB DE BARRIO,CLUB_DE_BARRIO,,Gualeguaychu 2902,Gualeguaychu 2902,,4566-3598,clubpedrolozano@gmail.com,,,"Baby fútbol, Artes Marciales, Danzas Arabes, capoeira, boxeo, kung fu",1 Canchas - 2 salones,Gualeguaychu ,2902,Villa Devoto,Comuna 11,1417,C1417AYT
-58.5214272824708,-34.6100881382215,250,DEVOTO OESTE ASOCIACION DE FOMENTO Y BIBLIOTECA POPULAR,CLUB DE BARRIO,CLUB_DE_BARRIO,,Bermudez  3351,Bermudez  3351,,4568-4837,,,,"gimnasia, gimnasia artistica, artes marciales, yoga, folklore, tango",3 salones,Bermudez  ,3351,Villa Devoto,Comuna 11,1419,C1419CAC
-58.5087045850541,-34.6029734736966,251,SOCIAL CULTURAL Y DEPORTIVO FRIULANA,CLUB DE BARRIO,CLUB_DE_BARRIO,,Navarro 3974,Navarro 3974,,4501-0764,friulana@fibertel.com.ar,,,"gimnasia, yoga, taekwondo, bochas, ajedrez, tango",salon - gimnasio cancha de bochas - biblioteca,Navarro ,3974,Villa Devoto,Comuna 11,1419,C1419HUB
-58.4914847121496,-34.6024786012415,252,CLUB RACING DE VILLA DEL PARQUE,CLUB,CLUB,SEDE CAPITAL - DOMICILIO LEGAL EN AVELLANEDA,Nogoya 3045,Nogoya 3045,,4501-9100  4504-9111  y 4502-7396,sedecapital@racingclub.com.ar,,www.racingclub.com.ar,"atletismo, básquet, fútbol infantil, futsal femenino, futsal masculino, gimnasia artística, judo, patín artístico, sipalki do, taekwondo, voley femenino",,Nogoya ,3045,Villa Del Parque,Comuna 11,1417,C1417FNE
-58.4805753825101,-34.6111834095822,253,ASOCIACION VECINAL DE FOMENTO Y CULTURA SANTA RITA,CLUB DE BARRIO,CLUB_DE_BARRIO,UNICA,San Blas 2842,San Blas 2842,,4584-4874,,,,"Artes Marciales, gimnasia jazz, danzas, juegos de mesa",,San Blas ,2842,Villa Santa Rita,Comuna 11,1416,C1416EFZ
-58.4969791208791,-34.5800260516313,254,ASOCIACION URQUIZA TENIS CLUB (ANTES ASOCIACION CLUB ATLETICO URQUIZA),CLUB,CLUB,,Caracas 4935,Caracas 4935,,4573-3501,utc@fibertel.com.ar,,,"tenis, karate, bochas","1 cancha de bochas, 1 de fútbol 5, 1 salon, natatorio, 5 canchas de tenis  (4 de polvo de ladrillo y una de cemento)",Caracas ,4935,Villa Pueyrredon,Comuna 12,1419,C1419EKC
-58.485337302127,-34.5451294658111,255,ASOCIACION VECINAL LOMAS DE SAAVEDRA,CLUB DE BARRIO,CLUB_DE_BARRIO,,Pico 3540,Pico 3540,,4541-0777,,,,artes marciales,1 cancha - 1 salon,Pico ,3540,Saavedra,Comuna 12,1430,C1430CWD
-58.4780515264558,-34.5531224002758,256,ASOCIACION VECINAL PRO-FOMENTO DE SAAVEDRA Y BIBLIOTECA POPULAR (El Pañuelito),CLUB DE BARRIO,CLUB_DE_BARRIO,,Jaramillo 3446,Jaramillo 3446,,4541-2810 / 4543-2119,,,,"baby, basket, voley, gimnasia (musculacion)",1 cancha 20x14 descubierta - 1 salon,Jaramillo ,3446,Saavedra,Comuna 12,1430,C1430AGB
-58.4942765284908,-34.5622148868267,257,CLUB ATLETICO PLATENSE,CLUB,CLUB,"Anexo Alejandro Mariani Dólan""""",Crisologo Larralde 5195,Crisologo Larralde 5195,,4545-8358,,,www.cap.org.ar/,"fútbol, tenis, voley",4 canchas,Crisologo Larralde ,5195,Saavedra,Comuna 12,1431,C1431API
-58.4916386354758,-34.5645523784434,258,CLUB SOCIAL Y DEPORTIVO PINOCHO,CLUB DE BARRIO,CLUB_DE_BARRIO,,Manuela Pedraza 5139,Manuela Pedraza 5139,,4541-5909,pinocho@overnet.com.ar; clubpinocho@hotmail.com,,,"basquet, baby, futsal, gimnasia, karate, patin, voley, natacion, pilates",gimansio - canchas fútbol 5 - natatorio,Manuela Pedraza ,5139,Villa Urquiza,Comuna 12,1431,C1431AJI
-58.4889278603086,-34.5579599158221,259,CLUB VIENTO NORTE,CLUB DE BARRIO,CLUB_DE_BARRIO,,Mariano Acha 3743,Mariano Acha 3743,,4541-5187,,,,"Artes marciales, danza. Actividades culturales.",,Mariano Acha ,3743,Saavedra,Comuna 12,1430,C1430DVW
-58.4827912444282,-34.5474688696894,260,ASOCIACION CULTURAL Y DEPORTIVA ESTRELLA,CLUB DE BARRIO,CLUB_DE_BARRIO,,Superi 4437,Superi 4437,,S/T,,,,"gimnasia, ceramica",gimnasio  - biblioteca,Superi ,4437,Saavedra,Comuna 12,1430,C1430FGG
-58.4571021041198,-34.5466220365219,261,CLUB ATLETICO COMERCIO,CLUB DE BARRIO,CLUB_DE_BARRIO,,Av. Libertador 7199,Av. Libertador 7199,,4701-5620,clubcomercio@ciudad.com.ar,Club Atletico Comercio Club deportivo,,tenis,10 canchas,Av. Libertador ,7199,Nu\u00f1ez,Comuna 13,1429,C1429BME
-58.4617925997478,-34.5403591537607,262,CLUB ATLETICO DEFENSORES DE BELGRANO,CLUB,CLUB,"SEDE SOCIAL Y ESTADIO JUAN PASQUALE"" , TIENEN OTRA SEDE EN PROVINCIA""",Comodoro Rivadavia 1450,Comodoro Rivadavia 1450,,4702-8967,info@defeweb.com.ar - institucional@defeweb.com.ar,,www.defeweb.com.ar,"boxeo, fútbol, gimnasia, natacion, pesas",natatorio - cancha de fútbol - salon,Comodoro Rivadavia ,1450,Nu\u00f1ez,Comuna 13,1429,C1429DBQ
-58.4493852290269,-34.5465134445471,263,CLUB ATLETICO RIVER PLATE,CLUB,CLUB,,Av.Figueroa Alcorta 7597,Av.Figueroa Alcorta 7597,,4789-1200,club@cariverplate.com.ar,,www.cariverplate.com.ar,"basquet, voley, hockey (sobre cesped - sobre patines), tenis, natacion, gimnasia, fútbol femenino, handbol, cestoball, futsal, waterpolo",,Av.Figueroa Alcorta ,7597,Belgrano,Comuna 13,1428,C1428BCL
-58.4443461658768,-34.5492724849673,264,CLUB DE CORREDORES,CLUB DE BARRIO,CLUB_DE_BARRIO,,Monroe 916,Monroe 916,,4780-1010,clubdecorredores@clubdecorredores.com.ar,,www.clubdecorredores.com,carreras de calle de atletismo y carreras de aventura en zonas campestres,,Monroe ,916,Belgrano,Comuna 13,1428,C1428BKF
-58.4586688212857,-34.5731111366076,265,CLUB JUVENTUD DE BELGRANO,CLUB DE BARRIO,CLUB_DE_BARRIO,,Virrey Aviles 3167,Virrey Aviles 3167,,4553-6266,,,,"Baby Futbol, voley, patin, Artes Marciales. Actividades culturales.",1 cancha - 2 salones,Virrey Aviles ,3167,Colegiales,Comuna 13,1426,C1426EEE
-58.4423076130097,-34.5608718154368,266,HARRODS GATH Y CHAVES CLUB,CLUB,CLUB,,Virrey del Pino 1480,Virrey del Pino 1480,,4783-5864,info@clubharrods.com.ar,,,"tenis, basket, fútbol, badminton, voley, patin, gimnasia, hockey sobre cesped y patines, taekwondo, tenis de mesa, voley",cancha fútbol 11 - playon - 2 salones - gimasio - canchas de tenis - natatorio,Virrey del Pino ,1480,Belgrano,Comuna 13,1426,C1426EFB
-58.4611575609719,-34.5397438216586,267,CENTRO RECREATIVO MUNICIPAL,CLUB DE BARRIO,CLUB_DE_BARRIO,,C. Rivadavia 1350,Comodoro Rivadavia 1350,,4702-2409/8299 y 4701-3196,,,,,"Parque de 7 hectareas, sector de camping con quinchos, parrillas, campos de deportes, canchas de fútbol, vóley, canchas de tenis de polvo de ladrillo,  piscina y solarium. 2 salones.",Comodoro Rivadavia ,1350,Nu\u00f1ez,Comuna 13,1429,C1429DBP
-58.4551362550467,-34.5483001684048,268,TIRO FEDERAL ARGENTINO,CLUB,CLUB,,Av. Del Libertador 6935,Av. Del Libertador 6935,,4782-4000 Fax: 4782-4404,info@tfaba.com.ar,,www.tfaba.com.ar,"tiro, tenis, bowling, fútbol, hip hop, musculación, gimnasio, gimnasia, tango, circuito aeróbico dirigido",canchas de tenis - natatorio,Av. Del Libertador ,6935,Nu\u00f1ez,Comuna 13,1429,C1429BMC
-58.461851423574,-34.5425383491321,269,CIRCULO POLICIA FEDERAL,CLUB,CLUB,SEDE CAMPO LIBERTADOR,Av. Del Libertador 7801,Av. Del Libertador 7801,,4702-2253/9387,info@cpf.org.ar,Club Círculo Policía Federal,www.cpf.org.ar,"futsal, patin, voley, hockey, natacion, artes marciales",4 natatorios (1 cubierto) - 2  canchas - 4 salones,Av. Del Libertador ,7801,Nu\u00f1ez,Comuna 13,1429,C1429BML
-58.3889560568263,-34.6008669689626,272,CLUB UNIVERSITARIO BUENOS AIRES,CLUB,CLUB,SEDE CENTRAL,Viamonte 1560,Viamonte 1560,,"4375-4360, lineas rotativas",,,www.cuba.org.ar,"fútbol, squash, box, yudo, taekwondo, pelota paleta, natación, gimnasia, complemento de pesas , esgrima, básquet y yoga, conferencias, conciertos.",natatorio - Biblioteca - salon comedor,Viamonte ,1560,San Nicolas,Comuna 1,1055,C1055ABD
-58.4180245067341,-34.5659762177099,273,CLUB UNIVERSITARIO BUENOS AIRES,CLUB,CLUB,SEDE PALERMO,Av. Figueroa Alcorta y Belisario Roldán.,Av. Figueroa Alcorta 5094, y Belisario Roldán,4774-5476 ó 4776-2992,,,www.cuba.org.ar,"Natación, Gimnasia, Pelota a Paleta, TaekwonDo,  Tenis, Squash, Paddle, Sala de Nautilus (Gimnasio de Pesas y aparatos), Esgrima (No se están dando clases),","natatorio, 3 canchas de tenis, cancha cerrada de pelota, 2 canchas abiertas de pelota, gimnasio, vestuarios para socios y damas, bar, restaurante y oficina médica.",Av. Figueroa Alcorta ,5094,Palermo,Comuna 14,1426,C1426CBN
-58.4453936620661,-34.5471143299237,277,CLUB HIPICO ARGENTINO,CLUB,CLUB,UNICA,Figueroa Alcorta 7285,Figueroa Alcorta 7285,,4787-1003,,,www.clubhipicoargentino.org.ar,hipismo - escuela de equitación - gimnasia - natacion,"1 pista de césped, caballerizas para 300 equinos, varias pistas de arena, y un picadero cubierto con capacidad para 5000 espectadores. Otras comodidades son: una importante sede social, una pileta olímpica, un gimnasio y solarium.",Figueroa Alcorta ,7285,Belgrano,Comuna 13,1428,C1428BCI
-58.4346130592846,-34.558282483897,278,ASOCIACION CIVIL SIN FINES DE LUCRO GOLF CLUB LAGOS DE PALERMO,CLUB,CLUB,,Av. Tornquist 6397,Av. Tornquist 6397,,4774-5108,,,,golf,campo de golf,Av. Tornquist ,6397,Palermo,Comuna 14,1426,C1426CDA
-58.4343354665082,-34.584822828763,279,CLUB SOCIAL Y DEPORTIVO ESTRELLA DE MALDONADO,CLUB DE BARRIO,CLUB_DE_BARRIO,,Juan B. Justo 1439,Juan B. Justo 1439,,4771-9334,info@estrella-maldonado.com.ar,,www.estrella-maldonado.com.ar,"baby, futsal, patin, voley, taekwondo, karate, tenis de mesa, acrobacia, esgrima",3 canchas - 2 salones - 2 natatorio (cubiertos en invierno),Juan B. Justo ,1439,Palermo,Comuna 14,1414,C1414CWD
-58.4176493617394,-34.5976364817595,281,ASOCIACION CULTURAL Y DEPORTIVA BARKOJBA,CLUB,CLUB,SEDE ADMINISTRATIVA CAPITAL - PREDIO DEPORTIVO EN MORENO,Av. Córdoba 3621 1º B,Av. Córdoba 3621,,4862-6204,administracion@barkojba.com,,www.barkojba.com,"futsal, gimnasia, fútbol 11, tenis, hockey,",3 canchas - 2 salones - 1 natatorio,Av. Córdoba ,3621,Palermo,Comuna 14,1188,C1188AAC
-58.4802706782575,-34.5843099881107,282,ASOCIACION DE FOMENTO PARQUE CHAS,CLUB DE BARRIO,CLUB_DE_BARRIO,,Bauness 1486,Bauness 1486,,4523-2981,,,,"yoga, baby, gimnasia, tango, patin",,Bauness ,1486,Parque Chas,Comuna 15,1431,C1431DNB
-58.4492171023987,-34.6034961734064,283,CENTRO COMUNITARIO KADIMA,CLUB,CLUB,SEDE ADMINISTRATIVA - PREDIO DEPORTIVO EN MORENO,"Honorio Pueyrredon 1552 7º C"" """,Honorio Pueyrredon 1552,,4586-4829,,,,"fútbol, aerobic, tenis, yoga",cancha - natatorio,Honorio Pueyrredon ,1552,Villa Crespo,Comuna 15,1414,C1414CER
-58.4465348601279,-34.5844605894785,284,CLUB ATLETICO FENIX,CLUB DE BARRIO,CLUB_DE_BARRIO,,Concepcion Arenal 3560,Concepcion Arenal 3560,,4771-4657,clubatleticofenix@yahoo.com.ar,,,"artes marciales, tango, folklore",2 salones - 1 cancha,Concepcion Arenal ,3560,Chacarita,Comuna 15,1427,C1427EKD
-58.4740101924285,-34.5876702230202,285,CLUB ATLETICO LOS VIEJOS MUCHACHOS (N.O.B.),CLUB DE BARRIO,CLUB_DE_BARRIO,,Avalos 1036,Avalos 1036,,4523-5775,,,,"artes marciales, musculacion, tenis de mesa, teatro, tango, baby, basket, voley, gimnasia deportiva, danza. Actividades culturales.",3 salones,Avalos ,1036,Parque Chas,Comuna 15,1427,C1427AXN
-58.4906455292236,-34.5970384009226,286,CLUB COMUNICACIONES,CLUB,CLUB,,Avda. San Martin 5123,Av. San Martin 5123,,4502-9493,administracion@clubcomunicaciones.com.ar,,,"baby fútbol, basquet, patin, voley, futsal, handbol, gimnasia artistica, taekwondo, lucha, hockey sobre cesped y patines, beisball, pelota paleta, musculacion, fútbol afa, voley, lucha",4 canchas de fútbol - 16 canchas de tenis - 2 canchas de rugby - cancha de basquet - natatorio - salones,Av. San Martin ,5123,Agronomia,Comuna 15,1417,C1417DSL
-58.4805261437482,-34.5832523978095,287,CLUB SOCIAL DEPORTIVO EL TREBOL Y BIBLIOTECA INDEPENDENCIA,CLUB DE BARRIO,CLUB_DE_BARRIO,,Gandara 2840,Gandara 2840,,4521-5569,eltrebol54@uol.com.ar,,,"Fútbol de menores, voley femenino, karate, gimnasia, bochas para jubilados, teatro. Actividades culturales.",,Gandara ,2840,Parque Chas,Comuna 15,,
-58.4619059086961,-34.5977209676294,288,CLUB SOCIAL Y DEPORTIVO AÑASCO,CLUB DE BARRIO,CLUB_DE_BARRIO,,Gral. M.A.Rodriguez 2650,Gral. Manuel A Rodriguez 2650,,4583-4886,clubanasco@fibertel.com.ar,,,"baby fútbol, patin, taekwondo, danzas clasicas. Actividades culturales.",1 cancha - 2 salones,Gral. Manuel A Rodriguez ,2650,Paternal,Comuna 15,1416,C1416CNF
-58.4607490303544,-34.5811238831251,289,CLUB SOCIAL Y DEPORTIVO DEFENSORES DE CHACARITA,CLUB DE BARRIO,CLUB_DE_BARRIO,,Elcano  3831,Elcano  3831,,4554-2990,defensoresdechacarita@live.com.ar,,,"Baby, voley, artes marciales, danza. Actividades culturales.",2 canchas - 1 salon,Elcano  ,3831,Villa Ortuzar,Comuna 15,1427,C1427CHC
-58.4675051492648,-34.5918206908871,290,CLUB SOCIAL Y DEPORTIVO FLOREAL DE LA PATERNAL,CLUB DE BARRIO,CLUB_DE_BARRIO,,Elcano  4843,Elcano  4843,,4553-0648,,,,"ajedrez, voley, patin, baby",2 salones,Elcano  ,4843,Paternal,Comuna 15,1427,C1427CIG
-58.3800287604648,-34.5829721877203,88,VOLUNTARIOS SIN FRONTERAS,CLUB DE BARRIO,CLUB_DE_BARRIO,ANEXO deportivo,Playon Villa 31,Playon Villa 31,,4373-0509,,,,Futbol Femenino y Masculino - Volley Femenino - Artes Marciales Femenino y Masculino.,salon - canchas,Playon Villa ,31,,,,
-58.4338714597189,-34.6498254803457,175,MADRE DEL PUEBLO,CLUB DE BARRIO,CLUB_DE_BARRIO,UNICA,MANZANA 3 CASA 1 VILLA 1-11-14,MANZANA 3 CASA 1 VILLA 1-11-14,,,solcaacupe@hotmail.com,C A MADRE DEL PUEBLO,,"Hockey, fútbol, natación, patín artístico, rugby, atletismo, ajedrez, fútbol femenino, voley. Actividades culturales.",Sede Madre del Pueblo: Cancha fútbol 7 - Secretaría del Club - SUM. Sede San Antonio: Cancha fútbol 5 - SUM. Sede Virgen de Itati: Cancha fútbol 5 - SUM. Sede Virgen de Copacabana - Barrio Charrua: Cancha fútbol 5 - SUM (más info en Tabla Anexo),MANZANA ,11,,,,
-58.3757432903086,-34.5843321144276,185,"ASOCIACION CIVIL DE AYUDA, RECREATIVA Y POLIDEPORTIVA 17 DE NOVIEMBRE",CLUB DE BARRIO,CLUB_DE_BARRIO,,Calle 4 y 5  Villa 31,Calle 4 y 5 - Villa 31,,,poli_31@hotmail.com,,,"baby, basket, voley",1 cancha,Calle ,31,,,,
-58.4590225497088,-34.5366996200379,275,CLUB CENTRO NAVAL,CLUB,CLUB,SEDE NUÑEZ,Av. Cantilo y Arroyo Medrano,Av. Cantilo y Arroyo Medrano,,4701-4795 y 4704-9272,sede.nunez@centronaval.org.ar,,www.centronaval.org.ar,"rugby, hockey, nautica","amarraderos -  2 canchas  de hockey de césped sintético y 2 canchas de mini-hockey - 5 canchas reglamentarias de rugby, 4 de ellas provistas de torres de iluminación para entrenamiento nocturno y 3 canchas de mini-rugby.",Av. Cantilo y Arroyo Medrano,,,,,
-58.451844465805,-34.5400008328126,274,CLUB UNIVERSITARIO BUENOS AIRES,CLUB,CLUB,SEDE NUÑEZ,Av. Cantilo 3215,Av. Int. Cantilo 3215,,4703-4610 ó 4703-4611,,,www.cuba.org.ar,"Tenis, Gimnasia, Náutica, Futbol, Futbol 11 Juvenil, Curso de Timonel.",Amarraderos.,Av. Int. Cantilo ,3215,,,,
-58.4449040443759,-34.6355404370386,182,ASOCIACION ATLETICA PARQUE CHACABUCO,CLUB DE BARRIO,CLUB_DE_BARRIO,UNICA - ADMINISTRATIVA,DAVILA 1330 3º Piso A,Asamblea 1451,(Pista Pque. Chacabuco),,aapchacabuco@gmail.com,Asociacion Atletica Parque Chacabuco,,Atletismo,Entrenan en el Polideportivo Chacabuco,Asamblea ,1451,Parque Chacabuco,Comuna 7,1406,C1406HVE
